{
"type": "FeatureCollection",
"name": "geo_44_1",
"crs": { "type": "name", "properties": { "name": "urn:ogc:def:crs:OGC:1.3:CRS84" } },
"features": [
{ "type": "Feature", "properties": { "内容": "明野中央病院【1:病院】【診療科目:内科_ペインクリニック内科_整形外科_形成外科_リウマチ科_リハビリテーション科_麻酔科】【一般病床数:75療養病床数:0精神病床数:0感染症病床数:0合計病床数:75】大分県大分市明野東２丁目７番３３号", "url": "https://www.iryou.teikyouseido.mhlw.go.jp/znk-web/juminkanja/S2430/initialize?prefCd=44&kikanCd=1000100000&kikanKbn=1", "url2": "http://www.akenohp.jp/" }, "geometry": { "type": "Point", "coordinates": [ 131.656938, 33.220487 ] } },
{ "type": "Feature", "properties": { "内容": "井野辺病院【1:病院】【診療科目:内科_糖尿病・内分泌内科_脳神経内科_呼吸器内科_循環器内科_消化器内科_脳神経外科_整形外科_リハビリテーション科】【一般病床数:59療養病床数:60精神病床数:0感染症病床数:0合計病床数:119】大分県大分市大字中尾字平２５５", "url": "https://www.iryou.teikyouseido.mhlw.go.jp/znk-web/juminkanja/S2430/initialize?prefCd=44&kikanCd=1000200000&kikanKbn=1", "url2": "https://www.inobe.or.jp" }, "geometry": { "type": "Point", "coordinates": [ 131.550808, 33.208388 ] } },
{ "type": "Feature", "properties": { "内容": "今村病院【1:病院】【診療科目:内科_循環器内科_外科_整形外科_リハビリテーション科】【一般病床数:60療養病床数:0精神病床数:0感染症病床数:0合計病床数:60】大分県大分市大手町３－２－２９", "url": "https://www.iryou.teikyouseido.mhlw.go.jp/znk-web/juminkanja/S2430/initialize?prefCd=44&kikanCd=1000300000&kikanKbn=1", "url2": "http://www.imamura-hospital.jp/" }, "geometry": { "type": "Point", "coordinates": [ 131.613902, 33.238955 ] } },
{ "type": "Feature", "properties": { "内容": "医療法人　輝心会　大分循環器病院【1:病院】【診療科目:内科_糖尿病内科_代謝内科_循環器内科_消化器内科_腎臓内科_人工透析内科_心臓血管外科_整形外科_リウマチ科_リハビリテーション科_麻酔科】【一般病床数:99療養病床数:0精神病床数:0感染症病床数:0合計病床数:99】大分県大分市大字三芳３２０番３", "url": "https://www.iryou.teikyouseido.mhlw.go.jp/znk-web/juminkanja/S2430/initialize?prefCd=44&kikanCd=1000400000&kikanKbn=1", "url2": "http://www.oita-junkanki.jp/" }, "geometry": { "type": "Point", "coordinates": [ 131.59721, 33.224991 ] } },
{ "type": "Feature", "properties": { "内容": "大分岡病院【1:病院】【診療科目:内科_血液内科_糖尿病内科_糖尿病・代謝内科_呼吸器内科_循環器内科_消化器内科_腎臓内科_神経内科_腫瘍内科_外科_脳神経外科_心臓血管外科_消化器外科_肛門外科_胸部外科_整形外科_形成外科_皮膚科_歯科_矯正歯科_歯科口腔外科_リハビリテーション科_放射線科_病理診断科_救急科_麻酔科】【一般病床数:203療養病床数:0精神病床数:0感染症病床数:0合計病床数:203】大分県大分市西鶴崎３丁目７番１１号", "url": "https://www.iryou.teikyouseido.mhlw.go.jp/znk-web/juminkanja/S2430/initialize?prefCd=44&kikanCd=1000500000&kikanKbn=1", "url2": "http://www.oka-hp.com/" }, "geometry": { "type": "Point", "coordinates": [ 131.68612, 33.240087 ] } },
{ "type": "Feature", "properties": { "内容": "大分リハビリテーション病院【1:病院】【診療科目:内科_リハビリテーション科】【一般病床数:0療養病床数:120精神病床数:0感染症病床数:0合計病床数:120】大分県大分市大字志村字谷ヶ迫７６５番地", "url": "https://www.iryou.teikyouseido.mhlw.go.jp/znk-web/juminkanja/S2430/initialize?prefCd=44&kikanCd=1000600000&kikanKbn=1", "url2": "https://keiwakai.oita.jp/oitareha/" }, "geometry": { "type": "Point", "coordinates": [ 131.705818, 33.239944 ] } },
{ "type": "Feature", "properties": { "内容": "社会医療法人財団　天心堂　へつぎ病院【1:病院】【診療科目:内科_血液内科_糖尿病・内分泌内科_呼吸器内科_循環器内科_消化器内科_腎臓内科_神経内科_緩和ケア内科_外科_脳神経外科_血管外科_消化器外科_大腸・肛門外科_腹部外科_整形外科_形成外科_小児科_眼科_耳鼻いんこう科_皮膚科_泌尿器科_リハビリテーション科_放射線科_麻酔科】【一般病床数:188療養病床数:0精神病床数:0感染症病床数:0合計病床数:188】大分県大分市大字中戸次字二本木５９５６番地", "url": "https://www.iryou.teikyouseido.mhlw.go.jp/znk-web/juminkanja/S2430/initialize?prefCd=44&kikanCd=1000700000&kikanKbn=1", "url2": "http://www.tenshindo.org/" }, "geometry": { "type": "Point", "coordinates": [ 131.657013, 33.158275 ] } },
{ "type": "Feature", "properties": { "内容": "医療法人　慈善会　膳所病院【1:病院】【診療科目:内科_糖尿病内科_胃腸内科_外科_消化器外科_肛門外科_内視鏡外科_整形外科_泌尿器科_リハビリテーション科】【一般病床数:48療養病床数:0精神病床数:0感染症病床数:0合計病床数:48】大分県大分市金池町１丁目９番３８号", "url": "https://www.iryou.teikyouseido.mhlw.go.jp/znk-web/juminkanja/S2430/initialize?prefCd=44&kikanCd=1000800000&kikanKbn=1", "url2": "http://www.zeze-hospi.org/" }, "geometry": { "type": "Point", "coordinates": [ 131.611276, 33.231975 ] } },
{ "type": "Feature", "properties": { "内容": "大分中村病院【1:病院】【診療科目:内科_糖尿病内科_呼吸器内科_循環器内科_消化器内科_腎臓内科_緩和ケア内科_外科_脳神経外科_心臓血管外科_肛門外科_腫瘍外科_整形外科_形成外科_脊椎外科，手外科_婦人科_皮膚科_泌尿器科_リウマチ科_リハビリテーション科_放射線科_麻酔科_骨盤底リハビリテーション科】【一般病床数:260療養病床数:0精神病床数:0感染症病床数:0合計病床数:260】大分県大分市舞鶴町一丁目４番１号", "url": "https://www.iryou.teikyouseido.mhlw.go.jp/znk-web/juminkanja/S2430/initialize?prefCd=44&kikanCd=1000900000&kikanKbn=1", "url2": "http://www.nakamura-hosp.or.jp" }, "geometry": { "type": "Point", "coordinates": [ 131.619938, 33.239448 ] } },
{ "type": "Feature", "properties": { "内容": "医療法人社団　三杏会　仁医会病院【1:病院】【診療科目:内科_糖尿病内科_呼吸器内科_循環器内科_消化器内科_腎臓内科_人工透析内科_リハビリテーション科_放射線科】【一般病床数:60療養病床数:0精神病床数:0感染症病床数:0合計病床数:60】大分県大分市古国府６丁目２番４７号", "url": "https://www.iryou.teikyouseido.mhlw.go.jp/znk-web/juminkanja/S2430/initialize?prefCd=44&kikanCd=1001000000&kikanKbn=1", "url2": "http://www.jinikai.com" }, "geometry": { "type": "Point", "coordinates": [ 131.611061, 33.216359 ] } },
{ "type": "Feature", "properties": { "内容": "医療法人社団　親和会　えとう内科病院【1:病院】【診療科目:内科_呼吸器内科_循環器内科_消化器内科_精神科_心療内科_リウマチ科_リハビリテーション科】【一般病床数:58療養病床数:0精神病床数:0感染症病床数:0合計病床数:58】大分県大分市中判田", "url": "https://www.iryou.teikyouseido.mhlw.go.jp/znk-web/juminkanja/S2430/initialize?prefCd=44&kikanCd=1001100000&kikanKbn=1", "url2": "http://shinwakai-hosp.com" }, "geometry": { "type": "Point", "coordinates": [ 131.613464, 33.183537 ] } },
{ "type": "Feature", "properties": { "内容": "医療法人社団　親和会　衛藤病院【1:病院】【診療科目:内科_精神科_老年精神科】【一般病床数:0療養病床数:0精神病床数:232感染症病床数:0合計病床数:232】大分県大分市上判田", "url": "https://www.iryou.teikyouseido.mhlw.go.jp/znk-web/juminkanja/S2430/initialize?prefCd=44&kikanCd=1001200000&kikanKbn=1", "url2": "http://shinwakai-hosp.com" }, "geometry": { "type": "Point", "coordinates": [ 131.630459, 33.167193 ] } },
{ "type": "Feature", "properties": { "内容": "医療法人社団　淵野会　渕野病院【1:病院】【診療科目:精神科_心療内科】【一般病床数:0療養病床数:0精神病床数:187感染症病床数:0合計病床数:187】大分県大分市坂ノ市中央５丁目１番２１号", "url": "https://www.iryou.teikyouseido.mhlw.go.jp/znk-web/juminkanja/S2430/initialize?prefCd=44&kikanCd=1001300000&kikanKbn=1", "url2": "http://www.fuchinokai.or.jp" }, "geometry": { "type": "Point", "coordinates": [ 131.754954, 33.234818 ] } },
{ "type": "Feature", "properties": { "内容": "医療法人　善慈会　大分丘の上病院【1:病院】【診療科目:神経内科_児童精神科_精神科_心療内科】【一般病床数:0療養病床数:0精神病床数:140感染症病床数:0合計病床数:140】大分県大分市大字竹中１４０３番地", "url": "https://www.iryou.teikyouseido.mhlw.go.jp/znk-web/juminkanja/S2430/initialize?prefCd=44&kikanCd=1001500000&kikanKbn=1", "url2": "http://www.h4.dion.ne.jp/~okanoue1" }, "geometry": { "type": "Point", "coordinates": [ 131.647226, 33.147846 ] } },
{ "type": "Feature", "properties": { "内容": "有田胃腸病院【1:病院】【診療科目:内科_消化器内科_外科_消化器外科_肛門外科_皮膚科_リハビリテーション科_放射線科】【一般病床数:94療養病床数:0精神病床数:0感染症病床数:0合計病床数:94】大分県大分市牧１丁目２番６号", "url": "https://www.iryou.teikyouseido.mhlw.go.jp/znk-web/juminkanja/S2430/initialize?prefCd=44&kikanCd=1001600000&kikanKbn=1", "url2": "http://arita-hp.or.jp/" }, "geometry": { "type": "Point", "coordinates": [ 131.636424, 33.240644 ] } },
{ "type": "Feature", "properties": { "内容": "医療法人　ライフサポート　明和記念病院【1:病院】【診療科目:内科_リハビリテーション科】【一般病床数:0療養病床数:120精神病床数:0感染症病床数:0合計病床数:120】大分県大分市明野北", "url": "https://www.iryou.teikyouseido.mhlw.go.jp/znk-web/juminkanja/S2430/initialize?prefCd=44&kikanCd=1001700000&kikanKbn=1", "url2": "http://www.meiwa-hp.jp/" }, "geometry": { "type": "Point", "coordinates": [ 131.655586, 33.226088 ] } },
{ "type": "Feature", "properties": { "内容": "医療法人　善昭会　オアシス第一病院【1:病院】【診療科目:内科_脳神経内科_呼吸器内科_循環器内科_消化器内科_脳神経外科_リハビリテーション科】【一般病床数:95療養病床数:0精神病床数:0感染症病床数:0合計病床数:95】大分県大分市東鶴崎３丁目３番１９号", "url": "https://www.iryou.teikyouseido.mhlw.go.jp/znk-web/juminkanja/S2430/initialize?prefCd=44&kikanCd=1001800000&kikanKbn=1", "url2": "http://www.oasis-hp.jp" }, "geometry": { "type": "Point", "coordinates": [ 131.695851, 33.237914 ] } },
{ "type": "Feature", "properties": { "内容": "医療法人　善昭会　オアシス第二病院【1:病院】【診療科目:内科_脳神経内科_呼吸器内科_消化器内科_精神科_リハビリテーション科】【一般病床数:108療養病床数:0精神病床数:0感染症病床数:0合計病床数:108】大分県大分市東鶴崎２丁目３番３０号", "url": "https://www.iryou.teikyouseido.mhlw.go.jp/znk-web/juminkanja/S2430/initialize?prefCd=44&kikanCd=1001900000&kikanKbn=1", "url2": "http://www.oasis-hp.jp" }, "geometry": { "type": "Point", "coordinates": [ 131.695979, 33.238567 ] } },
{ "type": "Feature", "properties": { "内容": "独立行政法人国立病院機構　大分医療センター【1:病院】【診療科目:血液内科_糖尿病内科_代謝・内分泌内科_呼吸器内科_循環器内科_消化器内科_腎臓内科_神経内科_膠原病内科_外科_呼吸器外科_心臓血管外科_消化器外科_乳腺外科_整形外科_婦人科_泌尿器科_リハビリテーション科_放射線科_病理診断科_麻酔科】【一般病床数:300療養病床数:0精神病床数:0感染症病床数:0合計病床数:300】大分県大分市横田２丁目１１番４５号", "url": "https://www.iryou.teikyouseido.mhlw.go.jp/znk-web/juminkanja/S2430/initialize?prefCd=44&kikanCd=1002000000&kikanKbn=1", "url2": "https://oita.hosp.go.jp/" }, "geometry": { "type": "Point", "coordinates": [ 131.721012, 33.252632 ] } },
{ "type": "Feature", "properties": { "内容": "大分記念病院【1:病院】【診療科目:内科_血液内科_糖尿病内科_代謝内科_呼吸器内科_循環器内科_消化器内科_腎臓内科_人工透析内科_腫瘍内科_内視鏡内科_血管外科_整形外科_リウマチ科_リハビリテーション科】【一般病床数:84療養病床数:34精神病床数:0感染症病床数:0合計病床数:118】大分県大分市羽屋二丁目５番１０号", "url": "https://www.iryou.teikyouseido.mhlw.go.jp/znk-web/juminkanja/S2430/initialize?prefCd=44&kikanCd=1002100000&kikanKbn=1", "url2": "https://oitamh.jp/" }, "geometry": { "type": "Point", "coordinates": [ 131.600933, 33.214569 ] } },
{ "type": "Feature", "properties": { "内容": "大分共立病院【1:病院】【診療科目:内科_循環器内科_消化器内科_外科_泌尿器科】【一般病床数:73療養病床数:0精神病床数:0感染症病床数:0合計病床数:73】大分県大分市明磧町", "url": "https://www.iryou.teikyouseido.mhlw.go.jp/znk-web/juminkanja/S2430/initialize?prefCd=44&kikanCd=1002200000&kikanKbn=1", "url2": "http://www.kyoritsu-hospital.com/hos-index" }, "geometry": { "type": "Point", "coordinates": [ 131.587973, 33.207472 ] } },
{ "type": "Feature", "properties": { "内容": "大分県勤労者医療生活協同組合　大分協和病院【1:病院】【診療科目:内科_呼吸器内科_循環器内科_腎臓内科_心療内科_リハビリテーション科_放射線科】【一般病床数:40療養病床数:0精神病床数:0感染症病床数:0合計病床数:40】大分県大分市宮崎９５３番地の１", "url": "https://www.iryou.teikyouseido.mhlw.go.jp/znk-web/juminkanja/S2430/initialize?prefCd=44&kikanCd=1002300000&kikanKbn=1", "url2": "http://www.oitakyowa-hp.org/" }, "geometry": { "type": "Point", "coordinates": [ 131.604679, 33.197456 ] } },
{ "type": "Feature", "properties": { "内容": "大分健生病院【1:病院】【診療科目:内科_糖尿病内科_呼吸器内科_循環器内科_消化器内科_内視鏡内科_外科_整形外科_小児科_皮膚科_リハビリテーション科_放射線科_病理診断科】【一般病床数:130療養病床数:0精神病床数:0感染症病床数:0合計病床数:130】大分県大分市古ケ鶴１丁目１番１５号", "url": "https://www.iryou.teikyouseido.mhlw.go.jp/znk-web/juminkanja/S2430/initialize?prefCd=44&kikanCd=1002400000&kikanKbn=1", "url2": "http://www.oita-min.or.jp/" }, "geometry": { "type": "Point", "coordinates": [ 131.630416, 33.238688 ] } },
{ "type": "Feature", "properties": { "内容": "大分県立病院【1:病院】【診療科目:血液内科_代謝内科_内分泌内科_脳神経内科_呼吸器内科_循環器内科_消化器内科_腎臓内科_腫瘍内科_脳神経外科_呼吸器外科_心臓血管外科_消化器外科_乳腺外科_整形外科_形成外科_小児科_小児外科_新生児内科_産科_婦人科_眼科_耳鼻いんこう科_皮膚科_泌尿器科_精神科_歯科口腔外科_リウマチ科_リハビリテーション科_放射線科_病理診断科_臨床検査科_救急科_麻酔科】【一般病床数:509療養病床数:36精神病床数:0感染症病床数:12合計病床数:557】大分県大分市豊饒二丁目８番１号", "url": "https://www.iryou.teikyouseido.mhlw.go.jp/znk-web/juminkanja/S2430/initialize?prefCd=44&kikanCd=1002500000&kikanKbn=1", "url2": "http://hospital.pref.oita.jp/index.html" }, "geometry": { "type": "Point", "coordinates": [ 131.599079, 33.206516 ] } },
{ "type": "Feature", "properties": { "内容": "大分こども病院【1:病院】【診療科目:小児科_小児外科_皮膚科_アレルギー科】【一般病床数:35療養病床数:0精神病床数:0感染症病床数:0合計病床数:35】大分県大分市片島８３番地の７", "url": "https://www.iryou.teikyouseido.mhlw.go.jp/znk-web/juminkanja/S2430/initialize?prefCd=44&kikanCd=1002600000&kikanKbn=1", "url2": "https://www.oita-kodomo.jp/" }, "geometry": { "type": "Point", "coordinates": [ 131.620166, 33.216233 ] } },
{ "type": "Feature", "properties": { "内容": "社会医療法人三愛会　大分三愛メディカルセンター【1:病院】【診療科目:内科_糖尿病内科_内分泌内科_呼吸器内科_循環器内科_消化器内科_神経内科_外科_脳神経外科_呼吸器外科_心臓血管外科_消化器外科_乳腺外科_大腸・肛門外科_整形外科_形成外科_泌尿器科_リウマチ科_リハビリテーション科_放射線科_救急科_麻酔科】【一般病床数:190療養病床数:0精神病床数:0感染症病床数:0合計病床数:190】大分県大分市市１２１３番地", "url": "https://www.iryou.teikyouseido.mhlw.go.jp/znk-web/juminkanja/S2430/initialize?prefCd=44&kikanCd=1002700000&kikanKbn=1", "url2": "http://san-ai-group.org/" }, "geometry": { "type": "Point", "coordinates": [ 131.575576, 33.186319 ] } },
{ "type": "Feature", "properties": { "内容": "大分市医師会立アルメイダ病院【1:病院】【診療科目:内科_血液内科_内分泌内科_呼吸器内科_循環器内科_消化器内科_腎臓内科_腫瘍内科_緩和ケア内科_外科_脳神経外科_呼吸器外科_血管外科_心臓血管外科_消化器外科_腹部外科_整形外科_形成外科_小児科_新生児内科_産科_婦人科_皮膚科_泌尿器科_リハビリテーション科_放射線科_放射線治療科_病理診断科_臨床検査科_救急科_麻酔科】【一般病床数:406療養病床数:0精神病床数:0感染症病床数:0合計病床数:406】大分県大分市大字宮崎１５０９－２", "url": "https://www.iryou.teikyouseido.mhlw.go.jp/znk-web/juminkanja/S2430/initialize?prefCd=44&kikanCd=1002800000&kikanKbn=1", "url2": "https://www.almeida-hospital.com/" }, "geometry": { "type": "Point", "coordinates": [ 131.609487, 33.192671 ] } },
{ "type": "Feature", "properties": { "内容": "医療法人同仁会　大分下郡病院【1:病院】【診療科目:内科_精神科_神経科_心療内科】【一般病床数:0療養病床数:0精神病床数:384感染症病床数:0合計病床数:384】大分県大分市加納下郡１４１０番地", "url": "https://www.iryou.teikyouseido.mhlw.go.jp/znk-web/juminkanja/S2430/initialize?prefCd=44&kikanCd=1002900000&kikanKbn=1", "url2": "http://www.oita-shimogori.or.jp" }, "geometry": { "type": "Point", "coordinates": [ 131.640072, 33.231221 ] } },
{ "type": "Feature", "properties": { "内容": "大分整形外科病院【1:病院】【診療科目:整形外科_形成外科_リウマチ科_リハビリテーション科_麻酔科】【一般病床数:76療養病床数:0精神病床数:0感染症病床数:0合計病床数:76】大分県大分市岩田町１丁目１番４１号", "url": "https://www.iryou.teikyouseido.mhlw.go.jp/znk-web/juminkanja/S2430/initialize?prefCd=44&kikanCd=1003000000&kikanKbn=1", "url2": "https://oitaseikei.jp/" }, "geometry": { "type": "Point", "coordinates": [ 131.625974, 33.236175 ] } },
{ "type": "Feature", "properties": { "内容": "大分赤十字病院【1:病院】【診療科目:糖尿病・内分泌内科_脳神経内科_呼吸器内科_循環器内科_消化器内科_腎臓内科_肝胆膵内科_外科_脳神経外科_呼吸器外科_乳腺外科_整形外科_形成外科_産婦人科_眼科_耳鼻いんこう科_皮膚科_腎臓・泌尿器科_歯科_歯科口腔外科_リウマチ科_リハビリテーション科_放射線科_病理診断科_救急科_麻酔科】【一般病床数:340療養病床数:0精神病床数:0感染症病床数:0合計病床数:340】大分県大分市千代町３丁目２番３７号", "url": "https://www.iryou.teikyouseido.mhlw.go.jp/znk-web/juminkanja/S2430/initialize?prefCd=44&kikanCd=1003100000&kikanKbn=1", "url2": "https://www.oitasekijyuji.jp/" }, "geometry": { "type": "Point", "coordinates": [ 131.604345, 33.243856 ] } },
{ "type": "Feature", "properties": { "内容": "大分泌尿器科病院【1:病院】【診療科目:消化器内科_消化器外科_肛門外科_泌尿器科_麻酔科】【一般病床数:60療養病床数:0精神病床数:0感染症病床数:0合計病床数:60】大分県大分市長浜町２の１の３２", "url": "https://www.iryou.teikyouseido.mhlw.go.jp/znk-web/juminkanja/S2430/initialize?prefCd=44&kikanCd=1003200000&kikanKbn=1", "url2": "http://www.oita-hinyoukika.com" }, "geometry": { "type": "Point", "coordinates": [ 131.617038, 33.235333 ] } },
{ "type": "Feature", "properties": { "内容": "大分ゆふみ病院【1:病院】【診療科目:内科_疼痛緩和内科_緩和ケア内科】【一般病床数:24療養病床数:0精神病床数:0感染症病床数:0合計病床数:24】大分県大分市金谷迫３１３番地の１", "url": "https://www.iryou.teikyouseido.mhlw.go.jp/znk-web/juminkanja/S2430/initialize?prefCd=44&kikanCd=1003300000&kikanKbn=1", "url2": "http://oitayufumi.com/" }, "geometry": { "type": "Point", "coordinates": [ 131.555789, 33.227379 ] } },
{ "type": "Feature", "properties": { "内容": "大川産婦人科病院【1:病院】【診療科目:小児科_産婦人科_麻酔科】【一般病床数:40療養病床数:0精神病床数:0感染症病床数:0合計病床数:40】大分県大分市末広町２丁目４番１６号", "url": "https://www.iryou.teikyouseido.mhlw.go.jp/znk-web/juminkanja/S2430/initialize?prefCd=44&kikanCd=1003400000&kikanKbn=1", "url2": "https://okawa-obgyn.com" }, "geometry": { "type": "Point", "coordinates": [ 131.603245, 33.235605 ] } },
{ "type": "Feature", "properties": { "内容": "織部病院【1:病院】【診療科目:内科_呼吸器内科_循環器内科_消化器内科_放射線科】【一般病床数:36療養病床数:0精神病床数:0感染症病床数:0合計病床数:36】大分県大分市田中町一丁目８番６２号", "url": "https://www.iryou.teikyouseido.mhlw.go.jp/znk-web/juminkanja/S2430/initialize?prefCd=44&kikanCd=1003500000&kikanKbn=1", "url2": "http://www18.ocn.ne.jp/~gaifuu" }, "geometry": { "type": "Point", "coordinates": [ 131.591727, 33.213543 ] } },
{ "type": "Feature", "properties": { "内容": "河野脳神経外科病院【1:病院】【診療科目:脳神経外科_リハビリテーション科】【一般病床数:40療養病床数:0精神病床数:0感染症病床数:0合計病床数:40】大分県大分市森町字花ノ木通５１１－１", "url": "https://www.iryou.teikyouseido.mhlw.go.jp/znk-web/juminkanja/S2430/initialize?prefCd=44&kikanCd=1003600000&kikanKbn=1", "url2": "http://www.kawano-nshp.or.jp" }, "geometry": { "type": "Point", "coordinates": [ 131.679783, 33.22797 ] } },
{ "type": "Feature", "properties": { "内容": "小深田消化器病院【1:病院】【診療科目:内科_循環器内科_胃腸内科_外科_消化器外科_胃腸外科_大腸・肛門外科_リハビリテーション科】【一般病床数:40療養病床数:0精神病床数:0感染症病床数:0合計病床数:40】大分県大分市賀来南１－１５－３１", "url": "https://www.iryou.teikyouseido.mhlw.go.jp/znk-web/juminkanja/S2430/initialize?prefCd=44&kikanCd=1003700000&kikanKbn=1", "url2": "http://www.kobukata.com/" }, "geometry": { "type": "Point", "coordinates": [ 131.565528, 33.211799 ] } },
{ "type": "Feature", "properties": { "内容": "社会医療法人関愛会　佐賀関病院【1:病院】【診療科目:内科_循環器内科_外科_肛門外科_整形外科_小児科_眼科_耳鼻いんこう科_歯科_リハビリテーション科】【一般病床数:66療養病床数:0精神病床数:0感染症病床数:0合計病床数:66】大分県大分市佐賀関", "url": "https://www.iryou.teikyouseido.mhlw.go.jp/znk-web/juminkanja/S2430/initialize?prefCd=44&kikanCd=1003800000&kikanKbn=1", "url2": "http://sekiaikai.jp/" }, "geometry": { "type": "Point", "coordinates": [ 131.867614, 33.249595 ] } },
{ "type": "Feature", "properties": { "内容": "佐藤病院【1:病院】【診療科目:精神科_心療内科】【一般病床数:0療養病床数:0精神病床数:366感染症病床数:0合計病床数:366】大分県大分市桜ケ丘", "url": "https://www.iryou.teikyouseido.mhlw.go.jp/znk-web/juminkanja/S2430/initialize?prefCd=44&kikanCd=1003900000&kikanKbn=1", "url2": "http://www.sato-hsp.com" }, "geometry": { "type": "Point", "coordinates": [ 131.604753, 33.22651 ] } },
{ "type": "Feature", "properties": { "内容": "城東病院【1:病院】【診療科目:精神科】【一般病床数:0療養病床数:0精神病床数:104感染症病床数:0合計病床数:104】大分県大分市牧２丁目１６番１６号", "url": "https://www.iryou.teikyouseido.mhlw.go.jp/znk-web/juminkanja/S2430/initialize?prefCd=44&kikanCd=1004000000&kikanKbn=1", "url2": "http://www.joto-hp.jp/" }, "geometry": { "type": "Point", "coordinates": [ 131.641523, 33.240688 ] } },
{ "type": "Feature", "properties": { "内容": "諏訪の杜病院【1:病院】【診療科目:内科_血液内科_脳神経内科_呼吸器内科_循環器内科_消化器内科_胃腸内科_腎臓内科_人工透析内科_神経内科_外科_脳神経外科_心臓血管外科_整形外科_形成外科_皮膚科_精神科_心療内科_アレルギー科_リハビリテーション科_放射線科】【一般病床数:100療養病床数:0精神病床数:0感染症病床数:0合計病床数:100】大分県大分市鴛野１１８番地の１", "url": "https://www.iryou.teikyouseido.mhlw.go.jp/znk-web/juminkanja/S2430/initialize?prefCd=44&kikanCd=1004100000&kikanKbn=1", "url2": "http://www.k-suwanomori.com" }, "geometry": { "type": "Point", "coordinates": [ 131.617398, 33.18429 ] } },
{ "type": "Feature", "properties": { "内容": "医療法人愛恵会タキオ保養院【1:病院】【診療科目:精神科_心療内科】【一般病床数:0療養病床数:0精神病床数:170感染症病床数:0合計病床数:170】大分県大分市片島１３５５", "url": "https://www.iryou.teikyouseido.mhlw.go.jp/znk-web/juminkanja/S2430/initialize?prefCd=44&kikanCd=1004300000&kikanKbn=1", "url2": "http://takio.jp/" }, "geometry": { "type": "Point", "coordinates": [ 131.636939, 33.208747 ] } },
{ "type": "Feature", "properties": { "内容": "医療法人秀明会　だいかく病院【1:病院】【診療科目:内科_呼吸器内科_循環器内科_消化器内科_外科_脳神経外科_整形外科_皮膚科_泌尿器科_精神科_リハビリテーション科_麻酔科】【一般病床数:45療養病床数:0精神病床数:0感染症病床数:0合計病床数:45】大分県大分市下郡山の手２番１８号", "url": "https://www.iryou.teikyouseido.mhlw.go.jp/znk-web/juminkanja/S2430/initialize?prefCd=44&kikanCd=1004400000&kikanKbn=1", "url2": "http://www.daikaku-hp.jp/" }, "geometry": { "type": "Point", "coordinates": [ 131.639214, 33.22099 ] } },
{ "type": "Feature", "properties": { "内容": "塚川第一病院【1:病院】【診療科目:内科_糖尿病内科_呼吸器内科_循環器内科_消化器内科_腎臓内科_人工透析内科_整形外科_精神科_心療内科_リハビリテーション科】【一般病床数:25療養病床数:35精神病床数:0感染症病床数:0合計病床数:60】大分県大分市東春日町", "url": "https://www.iryou.teikyouseido.mhlw.go.jp/znk-web/juminkanja/S2430/initialize?prefCd=44&kikanCd=1004600000&kikanKbn=1", "url2": "http://www.hakkokai.com/" }, "geometry": { "type": "Point", "coordinates": [ 131.599595, 33.240363 ] } },
{ "type": "Feature", "properties": { "内容": "仲宗根病院【1:病院】【診療科目:精神科_心療内科_老年精神科】【一般病床数:0療養病床数:0精神病床数:142感染症病床数:0合計病床数:142】大分県大分市小野鶴", "url": "https://www.iryou.teikyouseido.mhlw.go.jp/znk-web/juminkanja/S2430/initialize?prefCd=44&kikanCd=1004700000&kikanKbn=1", "url2": null }, "geometry": { "type": "Point", "coordinates": [ 131.567193, 33.192974 ] } },
{ "type": "Feature", "properties": { "内容": "永冨記念病院【1:病院】【診療科目:整形外科_リハビリテーション科】【一般病床数:48療養病床数:0精神病床数:0感染症病床数:0合計病床数:48】大分県大分市玉沢", "url": "https://www.iryou.teikyouseido.mhlw.go.jp/znk-web/juminkanja/S2430/initialize?prefCd=44&kikanCd=1004800000&kikanKbn=1", "url2": null }, "geometry": { "type": "Point", "coordinates": [ 131.586594, 33.189134 ] } },
{ "type": "Feature", "properties": { "内容": "永冨脳神経外科病院【1:病院】【診療科目:呼吸器内科_消化器内科_神経内科_脳神経外科_眼科_リハビリテーション科_放射線科】【一般病床数:122療養病床数:31精神病床数:0感染症病床数:0合計病床数:153】大分県大分市西大道２－１－２０", "url": "https://www.iryou.teikyouseido.mhlw.go.jp/znk-web/juminkanja/S2430/initialize?prefCd=44&kikanCd=1004900000&kikanKbn=1", "url2": "http://www.nagatomi-hp.com/access.html" }, "geometry": { "type": "Point", "coordinates": [ 131.596604, 33.230602 ] } },
{ "type": "Feature", "properties": { "内容": "博愛病院【1:病院】【診療科目:神経内科_児童精神科_精神科_老年精神科】【一般病床数:0療養病床数:0精神病床数:20感染症病床数:0合計病床数:20】大分県大分市野田１１１１番地", "url": "https://www.iryou.teikyouseido.mhlw.go.jp/znk-web/juminkanja/S2430/initialize?prefCd=44&kikanCd=1005000000&kikanKbn=1", "url2": "http://www.hakuai.org/" }, "geometry": { "type": "Point", "coordinates": [ 131.538748, 33.197653 ] } },
{ "type": "Feature", "properties": { "内容": "藤島病院【1:病院】【診療科目:内科_消化器内科_胃腸内科_外科_食道外科_消化器外科_肛門外科_腹部外科_皮膚科】【一般病床数:43療養病床数:0精神病床数:0感染症病床数:0合計病床数:43】大分県大分市敷戸台１－１－３３", "url": "https://www.iryou.teikyouseido.mhlw.go.jp/znk-web/juminkanja/S2430/initialize?prefCd=44&kikanCd=1005100000&kikanKbn=1", "url2": null }, "geometry": { "type": "Point", "coordinates": [ 131.616147, 33.188655 ] } },
{ "type": "Feature", "properties": { "内容": "帆秋病院【1:病院】【診療科目:内科_精神科_心療内科_歯科】【一般病床数:0療養病床数:0精神病床数:446感染症病床数:0合計病床数:446】大分県大分市大字大分４７７２番地２", "url": "https://www.iryou.teikyouseido.mhlw.go.jp/znk-web/juminkanja/S2430/initialize?prefCd=44&kikanCd=1005200000&kikanKbn=1", "url2": "http://www.hoaki.jp" }, "geometry": { "type": "Point", "coordinates": [ 131.619623, 33.225104 ] } },
{ "type": "Feature", "properties": { "内容": "医療法人社団　淵野会　緑ヶ丘保養園【1:病院】【診療科目:内科_精神科_心療内科_老年精神科】【一般病床数:0療養病床数:0精神病床数:270感染症病床数:0合計病床数:270】大分県大分市丹生１７４７", "url": "https://www.iryou.teikyouseido.mhlw.go.jp/znk-web/juminkanja/S2430/initialize?prefCd=44&kikanCd=1005300000&kikanKbn=1", "url2": "http://www.fuchinokai.or.jp" }, "geometry": { "type": "Point", "coordinates": [ 131.703295, 33.218285 ] } },
{ "type": "Feature", "properties": { "内容": "リバーサイド病院【1:病院】【診療科目:内科_精神科_心療内科】【一般病床数:0療養病床数:0精神病床数:234感染症病床数:0合計病床数:234】大分県大分市宮崎６番地の３", "url": "https://www.iryou.teikyouseido.mhlw.go.jp/znk-web/juminkanja/S2430/initialize?prefCd=44&kikanCd=1005500000&kikanKbn=1", "url2": "http://www.riverside-hp.jp/" }, "geometry": { "type": "Point", "coordinates": [ 131.609023, 33.200109 ] } },
{ "type": "Feature", "properties": { "内容": "朝見病院【1:病院】【診療科目:内科_精神科_心療内科】【一般病床数:0療養病床数:0精神病床数:89感染症病床数:0合計病床数:89】大分県別府市朝見１丁目２３番２８号", "url": "https://www.iryou.teikyouseido.mhlw.go.jp/znk-web/juminkanja/S2430/initialize?prefCd=44&kikanCd=1005600000&kikanKbn=1", "url2": null }, "geometry": { "type": "Point", "coordinates": [ 131.496441, 33.271661 ] } },
{ "type": "Feature", "properties": { "内容": "石垣病院【1:病院】【診療科目:呼吸器内科_循環器内科_消化器内科_外科_呼吸器外科_心臓血管外科_消化器外科_内視鏡外科_アレルギー科_リハビリテーション科_麻酔科】【一般病床数:59療養病床数:0精神病床数:0感染症病床数:0合計病床数:59】大分県別府市大字鶴見１２－１", "url": "https://www.iryou.teikyouseido.mhlw.go.jp/znk-web/juminkanja/S2430/initialize?prefCd=44&kikanCd=1005700000&kikanKbn=1", "url2": "http://www.ctb.ne.jp/^ishigaki/" }, "geometry": { "type": "Point", "coordinates": [ 131.485791, 33.310446 ] } },
{ "type": "Feature", "properties": { "内容": "医療法人財団親幸会　浜脇記念病院【1:病院】【診療科目:内科_循環器内科_皮膚科_リハビリテーション科】【一般病床数:0療養病床数:63精神病床数:0感染症病床数:0合計病床数:63】大分県別府市浜脇", "url": "https://www.iryou.teikyouseido.mhlw.go.jp/znk-web/juminkanja/S2430/initialize?prefCd=44&kikanCd=1005900000&kikanKbn=1", "url2": "http://hamawakimhp.com" }, "geometry": { "type": "Point", "coordinates": [ 131.510451, 33.269421 ] } },
{ "type": "Feature", "properties": { "内容": "医療法人　百善会　村橋病院【1:病院】【診療科目:内科_呼吸器内科_消化器内科_神経内科_膠原病内科_心療内科_リウマチ科_リハビリテーション科】【一般病床数:50療養病床数:30精神病床数:0感染症病床数:0合計病床数:80】大分県別府市千代町", "url": "https://www.iryou.teikyouseido.mhlw.go.jp/znk-web/juminkanja/S2430/initialize?prefCd=44&kikanCd=1006000000&kikanKbn=1", "url2": "http://murahashi-hp.jp/" }, "geometry": { "type": "Point", "coordinates": [ 131.504715, 33.27463 ] } },
{ "type": "Feature", "properties": { "内容": "内田病院【1:病院】【診療科目:内科_血液内科_糖尿病内科_呼吸器内科_循環器内科_消化器内科_内視鏡内科_外科_整形外科_皮膚科_アレルギー科_リハビリテーション科_放射線診断科_麻酔科】【一般病床数:40療養病床数:41精神病床数:0感染症病床数:0合計病床数:81】大分県別府市末広町", "url": "https://www.iryou.teikyouseido.mhlw.go.jp/znk-web/juminkanja/S2430/initialize?prefCd=44&kikanCd=1006100000&kikanKbn=1", "url2": "http://uchida-hp.jp" }, "geometry": { "type": "Point", "coordinates": [ 131.502868, 33.27366 ] } },
{ "type": "Feature", "properties": { "内容": "大分県厚生連鶴見病院【1:病院】【診療科目:内科_血液内科_糖尿病・代謝内科_呼吸器内科_循環器内科_消化器内科_腎臓内科_人工透析内科_肝臓内科_神経内科_内視鏡内科_外科_脳神経外科_呼吸器外科_血管外科_消化器外科_膵臓外科_胆のう外科_乳腺外科_内視鏡外科_整形外科_形成外科_小児科_眼科_泌尿器科_腎臓・泌尿器科_リハビリテーション科_放射線診断科_放射線治療科_病理診断科_臨床検査科_救急科_麻酔科】【一般病床数:226療養病床数:0精神病床数:0感染症病床数:4合計病床数:230】大分県別府市緑丘町１２番１号", "url": "https://www.iryou.teikyouseido.mhlw.go.jp/znk-web/juminkanja/S2430/initialize?prefCd=44&kikanCd=1006200000&kikanKbn=1", "url2": "http://www.ok-tsurumi.com/" }, "geometry": { "type": "Point", "coordinates": [ 131.49004, 33.297821 ] } },
{ "type": "Feature", "properties": { "内容": "九州大学病院別府病院【1:病院】【診療科目:内科_外科_整形外科_婦人科_リハビリテーション科_放射線科_麻酔科】【一般病床数:120療養病床数:0精神病床数:0感染症病床数:0合計病床数:120】大分県別府市大字鶴見字鶴見原４５４６番地", "url": "https://www.iryou.teikyouseido.mhlw.go.jp/znk-web/juminkanja/S2430/initialize?prefCd=44&kikanCd=1006300000&kikanKbn=1", "url2": "https://www.beppu.kyushu-u.ac.jp/" }, "geometry": { "type": "Point", "coordinates": [ 131.480223, 33.293535 ] } },
{ "type": "Feature", "properties": { "内容": "清瀬病院【1:病院】【診療科目:内科_循環器内科_人工透析内科_外科_消化器外科】【一般病床数:40療養病床数:0精神病床数:0感染症病床数:0合計病床数:40】大分県別府市野口中町４番８号", "url": "https://www.iryou.teikyouseido.mhlw.go.jp/znk-web/juminkanja/S2430/initialize?prefCd=44&kikanCd=1006400000&kikanKbn=1", "url2": "http://kiyosehp.jp/" }, "geometry": { "type": "Point", "coordinates": [ 131.49857, 33.280836 ] } },
{ "type": "Feature", "properties": { "内容": "黒木記念病院【1:病院】【診療科目:内科_呼吸器内科_循環器内科_消化器内科_外科_整形外科_皮膚科_リウマチ科_リハビリテーション科_放射線科_麻酔科】【一般病床数:60療養病床数:114精神病床数:0感染症病床数:0合計病床数:174】大分県別府市照波園町１４番地２８号", "url": "https://www.iryou.teikyouseido.mhlw.go.jp/znk-web/juminkanja/S2430/initialize?prefCd=44&kikanCd=1006500000&kikanKbn=1", "url2": "http://www.kuroki-hp.or.jp/" }, "geometry": { "type": "Point", "coordinates": [ 131.497325, 33.319466 ] } },
{ "type": "Feature", "properties": { "内容": "児玉病院【1:病院】【診療科目:内科_呼吸器内科_循環器内科_消化器内科_腎臓内科_整形外科_心療内科_リウマチ科_リハビリテーション科】【一般病床数:41療養病床数:74精神病床数:0感染症病床数:0合計病床数:115】大分県別府市亀川四の湯町５番１９号", "url": "https://www.iryou.teikyouseido.mhlw.go.jp/znk-web/juminkanja/S2430/initialize?prefCd=44&kikanCd=1006600000&kikanKbn=1", "url2": "https://soumeikai.or.jp/kodama/" }, "geometry": { "type": "Point", "coordinates": [ 131.493778, 33.321036 ] } },
{ "type": "Feature", "properties": { "内容": "国家公務員共済組合連合会　新別府病院【1:病院】【診療科目:内科_代謝・内分泌内科_呼吸器内科_循環器内科_消化器内科_腎臓内科_肝臓内科_神経内科_外科_脳神経外科_呼吸器外科_心臓血管外科_消化器外科_肛門外科_整形外科_眼科_泌尿器科_リウマチ科_リハビリテーション科_放射線科_救急科_麻酔科】【一般病床数:269療養病床数:0精神病床数:0感染症病床数:0合計病床数:269】大分県別府市大字鶴見３８９８番地", "url": "https://www.iryou.teikyouseido.mhlw.go.jp/znk-web/juminkanja/S2430/initialize?prefCd=44&kikanCd=1006700000&kikanKbn=1", "url2": "http://www.shinbeppu-hosp.jp" }, "geometry": { "type": "Point", "coordinates": [ 131.477096, 33.299321 ] } },
{ "type": "Feature", "properties": { "内容": "別府湾腎泌尿器病院【1:病院】【診療科目:内科_糖尿病内科_循環器内科_婦人科_泌尿器科_腎臓・泌尿器科_リハビリテーション科_放射線科_麻酔科】【一般病床数:60療養病床数:0精神病床数:0感染症病床数:0合計病床数:60】大分県別府市北石垣深町８５１番地", "url": "https://www.iryou.teikyouseido.mhlw.go.jp/znk-web/juminkanja/S2430/initialize?prefCd=44&kikanCd=1006900000&kikanKbn=1", "url2": "https://bbuh.jp" }, "geometry": { "type": "Point", "coordinates": [ 131.500618, 33.310993 ] } },
{ "type": "Feature", "properties": { "内容": "鶴見台病院【1:病院】【診療科目:内科_精神科_心療内科】【一般病床数:0療養病床数:0精神病床数:160感染症病床数:0合計病床数:160】大分県別府市大字鶴見４０７５番地の４", "url": "https://www.iryou.teikyouseido.mhlw.go.jp/znk-web/juminkanja/S2430/initialize?prefCd=44&kikanCd=1007000000&kikanKbn=1", "url2": "http://www.tsurumidai.or.jp/" }, "geometry": { "type": "Point", "coordinates": [ 131.476993, 33.294974 ] } },
{ "type": "Feature", "properties": { "内容": "中村病院【1:病院】【診療科目:内科_血液内科_糖尿病内科_呼吸器内科_循環器内科_消化器内科_外科_消化器外科_肛門外科_整形外科_形成外科_皮膚科_泌尿器科_リハビリテーション科_麻酔科】【一般病床数:106療養病床数:47精神病床数:0感染症病床数:0合計病床数:153】大分県別府市秋葉町８番２４号", "url": "https://www.iryou.teikyouseido.mhlw.go.jp/znk-web/juminkanja/S2430/initialize?prefCd=44&kikanCd=1007100000&kikanKbn=1", "url2": "http://www.nakamura-med.or.jp/" }, "geometry": { "type": "Point", "coordinates": [ 131.50108, 33.275938 ] } },
{ "type": "Feature", "properties": { "内容": "独立行政法人国立病院機構　西別府病院【1:病院】【診療科目:内科_呼吸器内科_循環器内科_消化器内科_神経内科_脳神経外科_小児科_婦人科_皮膚科_精神科_歯科_リハビリテーション科_放射線科】【一般病床数:294療養病床数:0精神病床数:0感染症病床数:0合計病床数:304】大分県別府市鶴見４５４８", "url": "https://www.iryou.teikyouseido.mhlw.go.jp/znk-web/juminkanja/S2430/initialize?prefCd=44&kikanCd=1007200000&kikanKbn=1", "url2": "https://nishibeppu.hosp.go.jp/" }, "geometry": { "type": "Point", "coordinates": [ 131.474848, 33.293588 ] } },
{ "type": "Feature", "properties": { "内容": "農協共済別府リハビリテーションセンター【1:病院】【診療科目:リハビリテーション科】【一般病床数:0療養病床数:116精神病床数:0感染症病床数:0合計病床数:116】大分県別府市鶴見１０２６－１０", "url": "https://www.iryou.teikyouseido.mhlw.go.jp/znk-web/juminkanja/S2430/initialize?prefCd=44&kikanCd=1007300000&kikanKbn=1", "url2": "https://brc.or.jp" }, "geometry": { "type": "Point", "coordinates": [ 131.463561, 33.313504 ] } },
{ "type": "Feature", "properties": { "内容": "医療法人野口記念会（財団）　野口病院【1:病院】【診療科目:内科_外科_耳鼻いんこう科_放射線科_病理診断科_麻酔科】【一般病床数:120療養病床数:0精神病床数:0感染症病床数:0合計病床数:120】大分県別府市青山町７番５２号", "url": "https://www.iryou.teikyouseido.mhlw.go.jp/znk-web/juminkanja/S2430/initialize?prefCd=44&kikanCd=1007400000&kikanKbn=1", "url2": "https://www.noguchi-med.or.jp/" }, "geometry": { "type": "Point", "coordinates": [ 131.492261, 33.279786 ] } },
{ "type": "Feature", "properties": { "内容": "畑病院【1:病院】【診療科目:内科_呼吸器内科_循環器内科_消化器内科_整形外科_心療内科_リウマチ科_リハビリテーション科】【一般病床数:58療養病床数:0精神病床数:0感染症病床数:0合計病床数:58】大分県別府市中島町１４番２２号", "url": "https://www.iryou.teikyouseido.mhlw.go.jp/znk-web/juminkanja/S2430/initialize?prefCd=44&kikanCd=1007500000&kikanKbn=1", "url2": "https://hata.or.jp" }, "geometry": { "type": "Point", "coordinates": [ 131.492933, 33.275105 ] } },
{ "type": "Feature", "properties": { "内容": "独立行政法人国立病院機構　別府医療センター【1:病院】【診療科目:内科_血液内科_糖尿病・内分泌内科_脳神経内科_呼吸器内科_循環器内科_消化器内科_腎臓内科_膠原病内科_脳神経外科_呼吸器外科_食道外科_血管外科_心臓外科_消化器外科_乳腺外科_整形外科_形成外科_小児科_産婦人科_眼科_耳鼻いんこう科_皮膚科_泌尿器科_精神科_歯科_歯科口腔外科_リウマチ科_リハビリテーション科_放射線科_病理診断科_臨床検査科_救急科_麻酔科】【一般病床数:449療養病床数:0精神病床数:40感染症病床数:0合計病床数:492】大分県別府市大字内竈１４７３", "url": "https://www.iryou.teikyouseido.mhlw.go.jp/znk-web/juminkanja/S2430/initialize?prefCd=44&kikanCd=1007600000&kikanKbn=1", "url2": "https://beppu.hosp.go.jp/" }, "geometry": { "type": "Point", "coordinates": [ 131.485312, 33.331873 ] } },
{ "type": "Feature", "properties": { "内容": "別府温泉病院【1:病院】【診療科目:内科_循環器内科_整形外科_リハビリテーション科】【一般病床数:36療養病床数:0精神病床数:0感染症病床数:0合計病床数:36】大分県別府市大字野田２２番地の１", "url": "https://www.iryou.teikyouseido.mhlw.go.jp/znk-web/juminkanja/S2430/initialize?prefCd=44&kikanCd=1007700000&kikanKbn=1", "url2": "http://www.beppu-med.or.jp/onsen-byoin/" }, "geometry": { "type": "Point", "coordinates": [ 131.485019, 33.33017 ] } },
{ "type": "Feature", "properties": { "内容": "別府中央病院【1:病院】【診療科目:内科_糖尿病内科_内分泌内科_糖尿病・内分泌内科_糖尿病・代謝内科_呼吸器内科_循環器内科_消化器内科_胃腸内科_腎臓内科_肝臓内科_外科_脳神経外科_肛門外科_整形外科_形成外科_眼科_リハビリテーション科】【一般病床数:95療養病床数:51精神病床数:0感染症病床数:0合計病床数:146】大分県別府市北的ケ浜町５番１９号", "url": "https://www.iryou.teikyouseido.mhlw.go.jp/znk-web/juminkanja/S2430/initialize?prefCd=44&kikanCd=1007800000&kikanKbn=1", "url2": "http://fujimi.or.jp" }, "geometry": { "type": "Point", "coordinates": [ 131.504146, 33.285028 ] } },
{ "type": "Feature", "properties": { "内容": "別府発達医療センター【1:病院】【診療科目:内科_整形外科_小児科_児童精神科_耳鼻いんこう科_精神科_歯科_リハビリテーション科_麻酔科】【一般病床数:120療養病床数:0精神病床数:0感染症病床数:0合計病床数:120】大分県別府市荘園６－４", "url": "https://www.iryou.teikyouseido.mhlw.go.jp/znk-web/juminkanja/S2430/initialize?prefCd=44&kikanCd=1007900000&kikanKbn=1", "url2": "http://www.beppu-hattatsu.jp/" }, "geometry": { "type": "Point", "coordinates": [ 131.47768, 33.295759 ] } },
{ "type": "Feature", "properties": { "内容": "向井病院【1:病院】【診療科目:内科_整形外科_精神科_心療内科】【一般病床数:0療養病床数:0精神病床数:188感染症病床数:0合計病床数:188】大分県別府市堀田８組（大字南立石２４１番地１５）", "url": "https://www.iryou.teikyouseido.mhlw.go.jp/znk-web/juminkanja/S2430/initialize?prefCd=44&kikanCd=1008000000&kikanKbn=1", "url2": "http://www.mukai-hp.com" }, "geometry": { "type": "Point", "coordinates": [ 131.458926, 33.290611 ] } },
{ "type": "Feature", "properties": { "内容": "山本病院【1:病院】【診療科目:内科_精神科_心療内科】【一般病床数:0療養病床数:0精神病床数:234感染症病床数:0合計病床数:234】大分県別府市光町１４番３号", "url": "https://www.iryou.teikyouseido.mhlw.go.jp/znk-web/juminkanja/S2430/initialize?prefCd=44&kikanCd=1008200000&kikanKbn=1", "url2": "http://www.yamamoto-hp.info/" }, "geometry": { "type": "Point", "coordinates": [ 131.497164, 33.275364 ] } },
{ "type": "Feature", "properties": { "内容": "医療法人　杏林会　村上記念病院【1:病院】【診療科目:内科_呼吸器内科_循環器内科_消化器内科_腎臓内科_人工透析内科_神経内科_老年内科_リハビリテーション科_病理診断科】【一般病床数:41療養病床数:124精神病床数:0感染症病床数:0合計病床数:165】大分県中津市諸町", "url": "https://www.iryou.teikyouseido.mhlw.go.jp/znk-web/juminkanja/S2430/initialize?prefCd=44&kikanCd=1008300000&kikanKbn=1", "url2": "https://kyorinkai.net" }, "geometry": { "type": "Point", "coordinates": [ 131.183325, 33.602758 ] } },
{ "type": "Feature", "properties": { "内容": "大貞病院【1:病院】【診療科目:精神科】【一般病床数:0療養病床数:0精神病床数:136感染症病床数:0合計病床数:136】大分県中津市中原８番地", "url": "https://www.iryou.teikyouseido.mhlw.go.jp/znk-web/juminkanja/S2430/initialize?prefCd=44&kikanCd=1008400000&kikanKbn=1", "url2": "http://www.oosada-hp.dr-clinic.jp" }, "geometry": { "type": "Point", "coordinates": [ 131.21639, 33.577496 ] } },
{ "type": "Feature", "properties": { "内容": "梶原病院【1:病院】【診療科目:内科_胃腸内科_人工透析内科_外科_整形外科】【一般病床数:50療養病床数:49精神病床数:0感染症病床数:0合計病床数:99】大分県中津市中殿町３丁目２９番地８", "url": "https://www.iryou.teikyouseido.mhlw.go.jp/znk-web/juminkanja/S2430/initialize?prefCd=44&kikanCd=1008500000&kikanKbn=1", "url2": "http://www.kajiwarabyouin.com/" }, "geometry": { "type": "Point", "coordinates": [ 131.194938, 33.594916 ] } },
{ "type": "Feature", "properties": { "内容": "川嶌整形外科病院【1:病院】【診療科目:内科_循環器内科_脳神経外科_整形外科_リウマチ科_リハビリテーション科_放射線科_麻酔科】【一般病床数:143療養病床数:0精神病床数:0感染症病床数:0合計病床数:143】大分県中津市宮夫１７", "url": "https://www.iryou.teikyouseido.mhlw.go.jp/znk-web/juminkanja/S2430/initialize?prefCd=44&kikanCd=1008600000&kikanKbn=1", "url2": "http://kawashimahp.jp" }, "geometry": { "type": "Point", "coordinates": [ 131.212534, 33.592165 ] } },
{ "type": "Feature", "properties": { "内容": "酒井病院【1:病院】【診療科目:内科_外科_胃腸外科_整形外科_形成外科_泌尿器科_麻酔科】【一般病床数:76療養病床数:0精神病床数:0感染症病床数:0合計病床数:76】大分県中津市中央町１－１－４３", "url": "https://www.iryou.teikyouseido.mhlw.go.jp/znk-web/juminkanja/S2430/initialize?prefCd=44&kikanCd=1008700000&kikanKbn=1", "url2": "http://sakai24.org" }, "geometry": { "type": "Point", "coordinates": [ 131.189664, 33.593555 ] } },
{ "type": "Feature", "properties": { "内容": "つくし園【1:病院】【診療科目:内科_整形外科_小児科_児童精神科_精神科_心療内科_リハビリテーション科】【一般病床数:40療養病床数:0精神病床数:0感染症病床数:0合計病床数:40】大分県中津市三光森山８２３番地２", "url": "https://www.iryou.teikyouseido.mhlw.go.jp/znk-web/juminkanja/S2430/initialize?prefCd=44&kikanCd=1008800000&kikanKbn=1", "url2": "http://www.chokusin.jp/facility/tsukushien/" }, "geometry": { "type": "Point", "coordinates": [ 131.218987, 33.547404 ] } },
{ "type": "Feature", "properties": { "内容": "医療法人社団　中津胃腸病院【1:病院】【診療科目:内科_消化器内科_疼痛緩和内科_外科_消化器外科_肛門外科_リハビリテーション科_麻酔科】【一般病床数:112療養病床数:0精神病床数:0感染症病床数:0合計病床数:112】大分県中津市永添５１０番地", "url": "https://www.iryou.teikyouseido.mhlw.go.jp/znk-web/juminkanja/S2430/initialize?prefCd=44&kikanCd=1008900000&kikanKbn=1", "url2": "http://n-icho.or.jp/" }, "geometry": { "type": "Point", "coordinates": [ 131.205385, 33.579707 ] } },
{ "type": "Feature", "properties": { "内容": "中津市立中津市民病院【1:病院】【診療科目:内科_血液内科_糖尿病・内分泌内科_呼吸器内科_循環器内科_消化器内科_腎臓内科_神経内科_外科_脳神経外科_呼吸器外科_心臓血管外科_消化器外科_乳腺外科_肛門外科_内視鏡外科_小児科_小児外科_産婦人科_泌尿器科_歯科口腔外科_リハビリテーション科_放射線科_病理診断科_麻酔科】【一般病床数:250療養病床数:0精神病床数:0感染症病床数:0合計病床数:250】大分県中津市下池永１７３番地", "url": "https://www.iryou.teikyouseido.mhlw.go.jp/znk-web/juminkanja/S2430/initialize?prefCd=44&kikanCd=1009000000&kikanKbn=1", "url2": "http://www.city-nakatsu.jp/hospital/index.html" }, "geometry": { "type": "Point", "coordinates": [ 131.215125, 33.589823 ] } },
{ "type": "Feature", "properties": { "内容": "中津脳神経外科病院【1:病院】【診療科目:脳神経外科_リハビリテーション科】【一般病床数:74療養病床数:0精神病床数:0感染症病床数:0合計病床数:74】大分県中津市大字福島１０５５番地", "url": "https://www.iryou.teikyouseido.mhlw.go.jp/znk-web/juminkanja/S2430/initialize?prefCd=44&kikanCd=1009200000&kikanKbn=1", "url2": "http://nakatsunoushinkeigeka.jp/" }, "geometry": { "type": "Point", "coordinates": [ 131.225467, 33.563533 ] } },
{ "type": "Feature", "properties": { "内容": "松永循環器病院【1:病院】【診療科目:内科_呼吸器内科_循環器内科_リハビリテーション科】【一般病床数:45療養病床数:0精神病床数:0感染症病床数:0合計病床数:45】大分県中津市中央町１丁目３番５４号", "url": "https://www.iryou.teikyouseido.mhlw.go.jp/znk-web/juminkanja/S2430/initialize?prefCd=44&kikanCd=1009300000&kikanKbn=1", "url2": "http://www.matsunaga-hp.com/" }, "geometry": { "type": "Point", "coordinates": [ 131.192497, 33.592217 ] } },
{ "type": "Feature", "properties": { "内容": "医療法人　愛幸会　原病院【1:病院】【診療科目:循環器内科_胃腸内科_外科】【一般病床数:21療養病床数:30精神病床数:0感染症病床数:0合計病床数:51】大分県日田市三本松２ー６－１６", "url": "https://www.iryou.teikyouseido.mhlw.go.jp/znk-web/juminkanja/S2430/initialize?prefCd=44&kikanCd=1009500000&kikanKbn=1", "url2": "https://hita-harahospital.com" }, "geometry": { "type": "Point", "coordinates": [ 130.93133, 33.320359 ] } },
{ "type": "Feature", "properties": { "内容": "医療法人　鶴陽会　岩尾病院【1:病院】【診療科目:内科_糖尿病内科_脳神経内科_呼吸器内科_循環器内科_消化器内科_肝臓内科_内視鏡内科】【一般病床数:48療養病床数:0精神病床数:0感染症病床数:0合計病床数:48】大分県日田市淡窓２丁目４番２９号", "url": "https://www.iryou.teikyouseido.mhlw.go.jp/znk-web/juminkanja/S2430/initialize?prefCd=44&kikanCd=1009600000&kikanKbn=1", "url2": "http://www.iwao-hospital.jp" }, "geometry": { "type": "Point", "coordinates": [ 130.934385, 33.322955 ] } },
{ "type": "Feature", "properties": { "内容": "医療法人　咸宜会　日田中央病院【1:病院】【診療科目:内科_糖尿病内科_呼吸器内科_循環器内科_消化器内科_胃腸内科_腎臓内科_外科_呼吸器外科_血管外科_消化器外科_肝臓外科_膵臓外科_胆のう外科_乳腺外科_肛門外科_整形外科_小児外科_リハビリテーション科】【一般病床数:82療養病床数:0精神病床数:0感染症病床数:0合計病床数:82】大分県日田市淡窓２－５－１７", "url": "https://www.iryou.teikyouseido.mhlw.go.jp/znk-web/juminkanja/S2430/initialize?prefCd=44&kikanCd=1009700000&kikanKbn=1", "url2": "http://kangikai.or.jp/" }, "geometry": { "type": "Point", "coordinates": [ 130.933862, 33.322187 ] } },
{ "type": "Feature", "properties": { "内容": "医療法人　至誠会　城谷病院【1:病院】【診療科目:消化器内科_外科_肛門外科】【一般病床数:0療養病床数:32精神病床数:0感染症病床数:0合計病床数:32】大分県日田市元町１６－２２", "url": "https://www.iryou.teikyouseido.mhlw.go.jp/znk-web/juminkanja/S2430/initialize?prefCd=44&kikanCd=1009800000&kikanKbn=1", "url2": null }, "geometry": { "type": "Point", "coordinates": [ 130.936564, 33.316941 ] } },
{ "type": "Feature", "properties": { "内容": "医療法人社団　淡窓会　大分友愛病院【1:病院】【診療科目:内科_精神科】【一般病床数:0療養病床数:0精神病床数:189感染症病床数:0合計病床数:189】大分県日田市上野町１番地の１", "url": "https://www.iryou.teikyouseido.mhlw.go.jp/znk-web/juminkanja/S2430/initialize?prefCd=44&kikanCd=1009900000&kikanKbn=1", "url2": null }, "geometry": { "type": "Point", "coordinates": [ 130.92867, 33.311225 ] } },
{ "type": "Feature", "properties": { "内容": "医療法人社団　知心会　一ノ宮脳神経外科病院【1:病院】【診療科目:外科_脳神経外科_脊椎脊髄外科_リハビリテーション科_放射線診断科】【一般病床数:80療養病床数:0精神病床数:0感染症病床数:0合計病床数:80】大分県日田市竹田新町", "url": "https://www.iryou.teikyouseido.mhlw.go.jp/znk-web/juminkanja/S2430/initialize?prefCd=44&kikanCd=1010000000&kikanKbn=1", "url2": "http://www.ichinomiya-nh.com" }, "geometry": { "type": "Point", "coordinates": [ 130.937347, 33.311317 ] } },
{ "type": "Feature", "properties": { "内容": "医療法人　秋水堂　若宮病院【1:病院】【診療科目:内科_呼吸器内科_循環器内科_神経内科_外科_整形外科_形成外科_リウマチ科_リハビリテーション科_麻酔科】【一般病床数:0療養病床数:40精神病床数:0感染症病床数:0合計病床数:40】大分県日田市南元町６番４１号", "url": "https://www.iryou.teikyouseido.mhlw.go.jp/znk-web/juminkanja/S2430/initialize?prefCd=44&kikanCd=1010100000&kikanKbn=1", "url2": "http://www.shusuido.or.jp" }, "geometry": { "type": "Point", "coordinates": [ 130.94097, 33.311612 ] } },
{ "type": "Feature", "properties": { "内容": "医療法人　秋芳会　秋吉病院【1:病院】【診療科目:内科_循環器内科_胃腸内科_外科_リハビリテーション科】【一般病床数:0療養病床数:36精神病床数:0感染症病床数:0合計病床数:36】大分県日田市豆田町５番２０号", "url": "https://www.iryou.teikyouseido.mhlw.go.jp/znk-web/juminkanja/S2430/initialize?prefCd=44&kikanCd=1010200000&kikanKbn=1", "url2": "http://akiyoshihp.jp/" }, "geometry": { "type": "Point", "coordinates": [ 130.937813, 33.328613 ] } },
{ "type": "Feature", "properties": { "内容": "医療法人　百花会　上野公園病院【1:病院】【診療科目:精神科_神経科_心療内科】【一般病床数:0療養病床数:0精神病床数:198感染症病床数:0合計病床数:198】大分県日田市大字高瀬字篠原２２２６－１", "url": "https://www.iryou.teikyouseido.mhlw.go.jp/znk-web/juminkanja/S2430/initialize?prefCd=44&kikanCd=1010300000&kikanKbn=1", "url2": "http://www.uenokoen-hospital.jp/" }, "geometry": { "type": "Point", "coordinates": [ 130.923901, 33.299256 ] } },
{ "type": "Feature", "properties": { "内容": "医療法人豊堂　岩尾整形外科病院【1:病院】【診療科目:内科_整形外科_リウマチ科_リハビリテーション科_麻酔科】【一般病床数:60療養病床数:0精神病床数:0感染症病床数:0合計病床数:60】大分県日田市大字十二町字岸高５９５番地の１", "url": "https://www.iryou.teikyouseido.mhlw.go.jp/znk-web/juminkanja/S2430/initialize?prefCd=44&kikanCd=1010400000&kikanKbn=1", "url2": "https://www.iwaoseikei.com" }, "geometry": { "type": "Point", "coordinates": [ 130.926544, 33.321479 ] } },
{ "type": "Feature", "properties": { "内容": "医療法人　悠然会　大河原病院【1:病院】【診療科目:内科_循環器内科_胃腸内科_外科】【一般病床数:0療養病床数:34精神病床数:0感染症病床数:0合計病床数:34】大分県日田市隈２丁目３－１１", "url": "https://www.iryou.teikyouseido.mhlw.go.jp/znk-web/juminkanja/S2430/initialize?prefCd=44&kikanCd=1010500000&kikanKbn=1", "url2": null }, "geometry": { "type": "Point", "coordinates": [ 130.930292, 33.313878 ] } },
{ "type": "Feature", "properties": { "内容": "大分県済生会日田病院【1:病院】【診療科目:内科_血液内科_糖尿病・代謝内科_脳神経内科_心臓血管内科_消化器内科_腎臓内科_腫瘍内科_外科_脳神経外科_呼吸器外科_血管外科_消化器外科_乳腺外科_整形外科_形成外科_頸部外科_小児科_婦人科_皮膚科_歯科口腔外科_リハビリテーション科_放射線科_救急科_麻酔科】【一般病床数:195療養病床数:0精神病床数:0感染症病床数:4合計病床数:199】大分県日田市大字三和６４３－７", "url": "https://www.iryou.teikyouseido.mhlw.go.jp/znk-web/juminkanja/S2430/initialize?prefCd=44&kikanCd=1010600000&kikanKbn=1", "url2": "http://saiseikai.hita.oita.jp" }, "geometry": { "type": "Point", "coordinates": [ 130.94096, 33.345441 ] } },
{ "type": "Feature", "properties": { "内容": "奥村日田病院【1:病院】【診療科目:精神科】【一般病床数:0療養病床数:0精神病床数:180感染症病床数:0合計病床数:180】大分県日田市田島", "url": "https://www.iryou.teikyouseido.mhlw.go.jp/znk-web/juminkanja/S2430/initialize?prefCd=44&kikanCd=1010700000&kikanKbn=1", "url2": "https://www.hita-soujin.jp/" }, "geometry": { "type": "Point", "coordinates": [ 130.945718, 33.317742 ] } },
{ "type": "Feature", "properties": { "内容": "桂林病院【1:病院】【診療科目:内科_循環器内科_胃腸内科_リハビリテーション科】【一般病床数:0療養病床数:40精神病床数:0感染症病床数:0合計病床数:40】大分県日田市城町１丁目２ー６１", "url": "https://www.iryou.teikyouseido.mhlw.go.jp/znk-web/juminkanja/S2430/initialize?prefCd=44&kikanCd=1010800000&kikanKbn=1", "url2": "https://www.keirin-hospital.jp/" }, "geometry": { "type": "Point", "coordinates": [ 130.941067, 33.326799 ] } },
{ "type": "Feature", "properties": { "内容": "五反田病院【1:病院】【診療科目:内科_消化器内科_胃腸内科_外科_胃腸外科_大腸外科_肛門外科_整形外科_小児外科_リハビリテーション科_麻酔科】【一般病床数:60療養病床数:6精神病床数:0感染症病床数:0合計病床数:66】大分県日田市若宮町３９５－１", "url": "https://www.iryou.teikyouseido.mhlw.go.jp/znk-web/juminkanja/S2430/initialize?prefCd=44&kikanCd=1010900000&kikanKbn=1", "url2": "http://gotanda-hospital.jp/" }, "geometry": { "type": "Point", "coordinates": [ 130.942866, 33.308798 ] } },
{ "type": "Feature", "properties": { "内容": "日田リハビリテーション病院【1:病院】【診療科目:整形外科_リウマチ科_リハビリテーション科】【一般病床数:0療養病床数:41精神病床数:0感染症病床数:0合計病床数:41】大分県日田市上手町９", "url": "https://www.iryou.teikyouseido.mhlw.go.jp/znk-web/juminkanja/S2430/initialize?prefCd=44&kikanCd=1011000000&kikanKbn=1", "url2": "http://www.hitariha.jp/" }, "geometry": { "type": "Point", "coordinates": [ 130.941904, 33.334257 ] } },
{ "type": "Feature", "properties": { "内容": "聖陵岩里病院【1:病院】【診療科目:内科_糖尿病・代謝内科_呼吸器内科_循環器内科_消化器内科_神経内科_外科_消化器外科_リウマチ科_救急科】【一般病床数:55療養病床数:0精神病床数:0感染症病床数:0合計病床数:55】大分県日田市日ノ隈町２４２", "url": "https://www.iryou.teikyouseido.mhlw.go.jp/znk-web/juminkanja/S2430/initialize?prefCd=44&kikanCd=1011100000&kikanKbn=1", "url2": "https://seiryou.or.jp/iwasato/" }, "geometry": { "type": "Point", "coordinates": [ 130.92315, 33.316561 ] } },
{ "type": "Feature", "properties": { "内容": "社会医療法人　長門莫記念会　長門記念病院【1:病院】【診療科目:内科_感染症内科_呼吸器内科_循環器内科_消化器内科_神経内科_外科_脳神経外科_脳外科_消化器外科_肛門外科_整形外科_形成外科_美容外科_眼科_耳鼻いんこう科_皮膚科_皮膚泌尿器科_泌尿器科_精神科_アレルギー科_リウマチ科_リハビリテーション科_放射線科_救急科_麻酔科】【一般病床数:164療養病床数:100精神病床数:0感染症病床数:0合計病床数:264】大分県佐伯市鶴岡町", "url": "https://www.iryou.teikyouseido.mhlw.go.jp/znk-web/juminkanja/S2430/initialize?prefCd=44&kikanCd=1011200000&kikanKbn=1", "url2": "http://www.nagato.or.jp/" }, "geometry": { "type": "Point", "coordinates": [ 131.881739, 32.959382 ] } },
{ "type": "Feature", "properties": { "内容": "独立行政法人地域医療機能推進機構　南海医療センター【1:病院】【診療科目:内科_血液内科_代謝・内分泌内科_呼吸器内科_循環器内科_消化器内科_腎臓内科_外科_脳神経外科_心臓血管外科_消化器外科_乳腺外科_整形外科_形成外科_耳鼻いんこう科_皮膚科_泌尿器科_リハビリテーション科_放射線科_救急科_麻酔科】【一般病床数:191療養病床数:0精神病床数:0感染症病床数:4合計病床数:195】大分県佐伯市常盤西町７番８号", "url": "https://www.iryou.teikyouseido.mhlw.go.jp/znk-web/juminkanja/S2430/initialize?prefCd=44&kikanCd=1011300000&kikanKbn=1", "url2": "http://nankai.jcho.go.jp/" }, "geometry": { "type": "Point", "coordinates": [ 131.899796, 32.965395 ] } },
{ "type": "Feature", "properties": { "内容": "社会医療法人　敬和会　佐伯保養院【1:病院】【診療科目:精神科_心療内科_老年精神科】【一般病床数:0療養病床数:0精神病床数:180感染症病床数:0合計病床数:180】大分県佐伯市東町２７番１２号", "url": "https://www.iryou.teikyouseido.mhlw.go.jp/znk-web/juminkanja/S2430/initialize?prefCd=44&kikanCd=1011400000&kikanKbn=1", "url2": "http://www.saikihoyouin.com/" }, "geometry": { "type": "Point", "coordinates": [ 131.909473, 32.963698 ] } },
{ "type": "Feature", "properties": { "内容": "曽根病院【1:病院】【診療科目:内科_脳神経外科_整形外科_リハビリテーション科】【一般病床数:72療養病床数:0精神病床数:0感染症病床数:0合計病床数:72】大分県佐伯市長島町２丁目１８番２４号", "url": "https://www.iryou.teikyouseido.mhlw.go.jp/znk-web/juminkanja/S2430/initialize?prefCd=44&kikanCd=1011600000&kikanKbn=1", "url2": "http://sone-hp.jp" }, "geometry": { "type": "Point", "coordinates": [ 131.908993, 32.959404 ] } },
{ "type": "Feature", "properties": { "内容": "渡町台外科病院【1:病院】【診療科目:内科_循環器内科_外科_消化器外科_肛門外科_リハビリテーション科】【一般病床数:34療養病床数:0精神病床数:0感染症病床数:0合計病床数:34】大分県佐伯市長島町３－１３－１２", "url": "https://www.iryou.teikyouseido.mhlw.go.jp/znk-web/juminkanja/S2430/initialize?prefCd=44&kikanCd=1011700000&kikanKbn=1", "url2": "http://tomachidai.com/" }, "geometry": { "type": "Point", "coordinates": [ 131.907154, 32.956834 ] } },
{ "type": "Feature", "properties": { "内容": "西田病院【1:病院】【診療科目:内科_糖尿病内科_内分泌内科_呼吸器内科_循環器内科_消化器内科_腎臓内科_人工透析内科_外科_脳神経外科_消化器外科_肛門外科_整形外科_小児科_婦人科_眼科_皮膚科_泌尿器科_リウマチ科_リハビリテーション科_放射線科_麻酔科】【一般病床数:167療養病床数:77精神病床数:0感染症病床数:0合計病床数:244】大分県佐伯市鶴岡西町２丁目２６６番地", "url": "https://www.iryou.teikyouseido.mhlw.go.jp/znk-web/juminkanja/S2430/initialize?prefCd=44&kikanCd=1011900000&kikanKbn=1", "url2": "http://www.nisida-med.jp/" }, "geometry": { "type": "Point", "coordinates": [ 131.864035, 32.958644 ] } },
{ "type": "Feature", "properties": { "内容": "御手洗病院【1:病院】【診療科目:内科_呼吸器内科_消化器内科_外科_整形外科_小児外科_リハビリテーション科】【一般病床数:40療養病床数:0精神病床数:0感染症病床数:0合計病床数:40】大分県佐伯市蒲江蒲江浦２２１５－９", "url": "https://www.iryou.teikyouseido.mhlw.go.jp/znk-web/juminkanja/S2430/initialize?prefCd=44&kikanCd=1012000000&kikanKbn=1", "url2": null }, "geometry": { "type": "Point", "coordinates": [ 131.927304, 32.797376 ] } },
{ "type": "Feature", "properties": { "内容": "臼杵市医師会立　コスモス病院【1:病院】【診療科目:内科_血液内科_糖尿病・内分泌内科_呼吸器内科_循環器内科_消化器内科_神経内科_外科_脳神経外科_消化器外科_整形外科_皮膚科_リウマチ科_リハビリテーション科_放射線科_麻酔科】【一般病床数:176療養病床数:0精神病床数:0感染症病床数:4合計病床数:180】大分県臼杵市大字戸室字長谷１１３１番１", "url": "https://www.iryou.teikyouseido.mhlw.go.jp/znk-web/juminkanja/S2430/initialize?prefCd=44&kikanCd=1012100000&kikanKbn=1", "url2": "http://www.usukicosmos-med.or.jp/" }, "geometry": { "type": "Point", "coordinates": [ 131.778819, 33.123439 ] } },
{ "type": "Feature", "properties": { "内容": "白川病院【1:病院】【診療科目:内科_呼吸器内科_消化器内科_精神科_心療内科_老年精神科_リハビリテーション科】【一般病床数:0療養病床数:53精神病床数:120感染症病床数:0合計病床数:173】大分県臼杵市末広９３８番地", "url": "https://www.iryou.teikyouseido.mhlw.go.jp/znk-web/juminkanja/S2430/initialize?prefCd=44&kikanCd=1012500000&kikanKbn=1", "url2": null }, "geometry": { "type": "Point", "coordinates": [ 131.76955, 33.136414 ] } },
{ "type": "Feature", "properties": { "内容": "津久見市医師会立津久見中央病院【1:病院】【診療科目:内科_呼吸器内科_循環器内科_消化器内科_胃腸内科_外科_肛門外科_整形外科_小児科_耳鼻いんこう科_気管食道・耳鼻いんこう科_皮膚科_泌尿器科_心療内科_リハビリテーション科_放射線科】【一般病床数:120療養病床数:0精神病床数:0感染症病床数:0合計病床数:120】大分県津久見市大字千怒６０１１番地", "url": "https://www.iryou.teikyouseido.mhlw.go.jp/znk-web/juminkanja/S2430/initialize?prefCd=44&kikanCd=1012600000&kikanKbn=1", "url2": "http://tsukumi.oita.med.or.jp/" }, "geometry": { "type": "Point", "coordinates": [ 131.887705, 33.072137 ] } },
{ "type": "Feature", "properties": { "内容": "大久保病院【1:病院】【診療科目:内科_呼吸器内科_循環器内科_消化器内科_神経内科_膠原病内科_外科_脳神経外科_呼吸器外科_心臓血管外科_消化器外科_乳腺外科_整形外科_婦人科_泌尿器科_リハビリテーション科】【一般病床数:90療養病床数:0精神病床数:0感染症病床数:0合計病床数:90】大分県竹田市久住町栢木６０２６－２", "url": "https://www.iryou.teikyouseido.mhlw.go.jp/znk-web/juminkanja/S2430/initialize?prefCd=44&kikanCd=1012700000&kikanKbn=1", "url2": "http://www.okubo-hp.com" }, "geometry": { "type": "Point", "coordinates": [ 131.33206, 33.05783 ] } },
{ "type": "Feature", "properties": { "内容": "加藤病院【1:病院】【診療科目:内科_循環器内科_精神科_心療内科】【一般病床数:0療養病床数:0精神病床数:212感染症病床数:0合計病床数:212】大分県竹田市竹田１８５５番地", "url": "https://www.iryou.teikyouseido.mhlw.go.jp/znk-web/juminkanja/S2430/initialize?prefCd=44&kikanCd=1012800000&kikanKbn=1", "url2": "http://yuujinkai.com/" }, "geometry": { "type": "Point", "coordinates": [ 131.392569, 32.970484 ] } },
{ "type": "Feature", "properties": { "内容": "竹田医師会病院【1:病院】【診療科目:内科_呼吸器内科_循環器内科_胃腸内科_外科_大腸・肛門外科_整形外科_小児科_泌尿器科_リハビリテーション科_放射線科_麻酔科】【一般病床数:84療養病床数:72精神病床数:0感染症病床数:0合計病床数:156】大分県竹田市拝田原", "url": "https://www.iryou.teikyouseido.mhlw.go.jp/znk-web/juminkanja/S2430/initialize?prefCd=44&kikanCd=1012900000&kikanKbn=1", "url2": "http://taketaisikaibyouin.com/" }, "geometry": { "type": "Point", "coordinates": [ 131.379496, 32.958491 ] } },
{ "type": "Feature", "properties": { "内容": "玄々堂高田病院【1:病院】【診療科目:内科_循環器内科_腎臓内科_人工透析内科_整形外科_リハビリテーション科】【一般病床数:46療養病床数:0精神病床数:0感染症病床数:0合計病床数:46】大分県豊後高田市界３７８番地２", "url": "https://www.iryou.teikyouseido.mhlw.go.jp/znk-web/juminkanja/S2430/initialize?prefCd=44&kikanCd=1013000000&kikanKbn=1", "url2": "http://www.ag-holdings.jp/gengendo/takada/" }, "geometry": { "type": "Point", "coordinates": [ 131.427727, 33.548191 ] } },
{ "type": "Feature", "properties": { "内容": "高田中央病院【1:病院】【診療科目:内科_血液内科_糖尿病内科_代謝・内分泌内科_呼吸器内科_循環器内科_消化器内科_胃腸内科_腎臓内科_肝臓内科_神経内科_リウマチ膠原病内科_外科_消化器外科_胃腸外科_乳腺外科_肛門外科_大腸・肛門外科_整形外科_形成外科_小児科_婦人科_眼科_皮膚科_泌尿器科_心療内科_リウマチ科_リハビリテーション科_放射線科】【一般病床数:138療養病床数:0精神病床数:0感染症病床数:0合計病床数:138】大分県豊後高田市新地１１７６番地１", "url": "https://www.iryou.teikyouseido.mhlw.go.jp/znk-web/juminkanja/S2430/initialize?prefCd=44&kikanCd=1013100000&kikanKbn=1", "url2": "https://takachuo.com" }, "geometry": { "type": "Point", "coordinates": [ 131.44043, 33.555183 ] } },
{ "type": "Feature", "properties": { "内容": "千嶋病院【1:病院】【診療科目:精神科_心療内科_老年精神科】【一般病床数:0療養病床数:0精神病床数:196感染症病床数:0合計病床数:196】大分県豊後高田市呉崎７３８番地１", "url": "https://www.iryou.teikyouseido.mhlw.go.jp/znk-web/juminkanja/S2430/initialize?prefCd=44&kikanCd=1013200000&kikanKbn=1", "url2": "https://www.chishimahp.com/" }, "geometry": { "type": "Point", "coordinates": [ 131.434034, 33.575751 ] } },
{ "type": "Feature", "properties": { "内容": "医療法人オレンジ会　清和病院【1:病院】【診療科目:内科_精神科_心療内科】【一般病床数:0療養病床数:0精神病床数:126感染症病床数:0合計病床数:126】大分県杵築市船部２１６７－２０", "url": "https://www.iryou.teikyouseido.mhlw.go.jp/znk-web/juminkanja/S2430/initialize?prefCd=44&kikanCd=1013300000&kikanKbn=1", "url2": "http://orange-h.jp" }, "geometry": { "type": "Point", "coordinates": [ 131.597398, 33.445956 ] } },
{ "type": "Feature", "properties": { "内容": "杵築市立山香病院【1:病院】【診療科目:内科_循環器内科_胃腸内科_外科_胃腸外科_整形外科_小児科_眼科_耳鼻いんこう科_皮膚科_泌尿器科_リハビリテーション科_放射線科】【一般病床数:138療養病床数:0精神病床数:0感染症病床数:0合計病床数:138】大分県杵築市山香町大字野原１６１２番地１", "url": "https://www.iryou.teikyouseido.mhlw.go.jp/znk-web/juminkanja/S2430/initialize?prefCd=44&kikanCd=1013400000&kikanKbn=1", "url2": "http://www.yamaga-hp.jp/" }, "geometry": { "type": "Point", "coordinates": [ 131.508568, 33.445267 ] } },
{ "type": "Feature", "properties": { "内容": "杵築中央病院【1:病院】【診療科目:内科_呼吸器内科_循環器内科_消化器内科_人工透析内科_神経内科_外科_泌尿器科_アレルギー科_リハビリテーション科_放射線科】【一般病床数:60療養病床数:0精神病床数:0感染症病床数:0合計病床数:60】大分県杵築市杵築１２０番地", "url": "https://www.iryou.teikyouseido.mhlw.go.jp/znk-web/juminkanja/S2430/initialize?prefCd=44&kikanCd=1013500000&kikanKbn=1", "url2": "https://kc-hospital.or.jp/" }, "geometry": { "type": "Point", "coordinates": [ 131.623316, 33.415876 ] } },
{ "type": "Feature", "properties": { "内容": "医療法人　起愛会　宇佐病院【1:病院】【診療科目:内科_精神科_心療内科】【一般病床数:0療養病床数:0精神病床数:248感染症病床数:0合計病床数:248】大分県宇佐市南宇佐１６５５", "url": "https://www.iryou.teikyouseido.mhlw.go.jp/znk-web/juminkanja/S2430/initialize?prefCd=44&kikanCd=1013700000&kikanKbn=1", "url2": "http://usa-psy.com/" }, "geometry": { "type": "Point", "coordinates": [ 131.374168, 33.531522 ] } },
{ "type": "Feature", "properties": { "内容": "医療法人　興仁会　桑尾病院【1:病院】【診療科目:内科_外科_耳鼻いんこう科】【一般病床数:0療養病床数:32精神病床数:0感染症病床数:0合計病床数:32】大分県宇佐市四日市１１８", "url": "https://www.iryou.teikyouseido.mhlw.go.jp/znk-web/juminkanja/S2430/initialize?prefCd=44&kikanCd=1013800000&kikanKbn=1", "url2": "http://www.kuwao.jp/" }, "geometry": { "type": "Point", "coordinates": [ 131.326788, 33.534604 ] } },
{ "type": "Feature", "properties": { "内容": "医療法人　信和会　和田病院【1:病院】【診療科目:内科_呼吸器内科_循環器内科_消化器内科_外科_脳神経外科_消化器外科_肛門外科_整形外科_皮膚科_泌尿器科_リハビリテーション科】【一般病床数:33療養病床数:71精神病床数:0感染症病床数:0合計病床数:104】大分県宇佐市出光１６５番地の１", "url": "https://www.iryou.teikyouseido.mhlw.go.jp/znk-web/juminkanja/S2430/initialize?prefCd=44&kikanCd=1013900000&kikanKbn=1", "url2": "https://wadahp.com/" }, "geometry": { "type": "Point", "coordinates": [ 131.412106, 33.529447 ] } },
{ "type": "Feature", "properties": { "内容": "佐藤第一病院【1:病院】【診療科目:内科_内分泌内科_糖尿病・代謝内科_呼吸器内科_循環器内科_消化器内科_神経内科_外科_脳神経外科_消化器外科_乳腺外科_肛門外科_整形外科_リウマチ科_リハビリテーション科_放射線診断科_麻酔科】【一般病床数:90療養病床数:90精神病床数:0感染症病床数:0合計病床数:180】大分県宇佐市大字法鏡寺７７の１", "url": "https://www.iryou.teikyouseido.mhlw.go.jp/znk-web/juminkanja/S2430/initialize?prefCd=44&kikanCd=1014100000&kikanKbn=1", "url2": "https://sato-d1.com" }, "geometry": { "type": "Point", "coordinates": [ 131.343326, 33.5264 ] } },
{ "type": "Feature", "properties": { "内容": "宇佐高田医師会病院【1:病院】【診療科目:内科_血液内科_呼吸器内科_循環器内科_消化器内科_腎臓内科_外科_消化器外科_乳腺外科_リハビリテーション科_放射線科_麻酔科】【一般病床数:106療養病床数:0精神病床数:0感染症病床数:4合計病床数:110】大分県宇佐市南宇佐６３５", "url": "https://www.iryou.teikyouseido.mhlw.go.jp/znk-web/juminkanja/S2430/initialize?prefCd=44&kikanCd=1014200000&kikanKbn=1", "url2": "http://www.utihp.jp/" }, "geometry": { "type": "Point", "coordinates": [ 131.38597, 33.526907 ] } },
{ "type": "Feature", "properties": { "内容": "宇佐中央内科病院【1:病院】【診療科目:内科_糖尿病内科_呼吸器内科_循環器内科_消化器内科_胃腸内科_肝臓内科_神経内科_腫瘍内科_漢方内科_内視鏡内科_緩和ケア内科】【一般病床数:48療養病床数:0精神病床数:0感染症病床数:0合計病床数:48】大分県宇佐市江須賀", "url": "https://www.iryou.teikyouseido.mhlw.go.jp/znk-web/juminkanja/S2430/initialize?prefCd=44&kikanCd=1014300000&kikanKbn=1", "url2": "http://usa-chyuou.webmedipr.jp" }, "geometry": { "type": "Point", "coordinates": [ 131.356963, 33.555453 ] } },
{ "type": "Feature", "properties": { "内容": "小野内科病院【1:病院】【診療科目:内科_呼吸器内科_循環器内科_消化器内科_神経内科_アレルギー科_リハビリテーション科】【一般病床数:30療養病床数:20精神病床数:0感染症病床数:0合計病床数:50】大分県宇佐市南敷田７０５－１", "url": "https://www.iryou.teikyouseido.mhlw.go.jp/znk-web/juminkanja/S2430/initialize?prefCd=44&kikanCd=1014400000&kikanKbn=1", "url2": "https://ono-naika.jp/" }, "geometry": { "type": "Point", "coordinates": [ 131.27877, 33.549357 ] } },
{ "type": "Feature", "properties": { "内容": "帰巖会　みえ病院【1:病院】【診療科目:内科_糖尿病内科_呼吸器内科_循環器内科_消化器内科_腎臓内科_人工透析内科_肝臓内科_神経内科_内視鏡内科_外科_脳神経外科_心臓血管外科_消化器外科_大腸・肛門外科_整形外科_皮膚科_泌尿器科_精神科_歯科_歯科口腔外科_リウマチ科_リハビリテーション科_放射線科_麻酔科】【一般病床数:110療養病床数:0精神病床数:0感染症病床数:0合計病床数:110】大分県豊後大野市三重町赤嶺１２５０番地１", "url": "https://www.iryou.teikyouseido.mhlw.go.jp/znk-web/juminkanja/S2430/initialize?prefCd=44&kikanCd=1014800000&kikanKbn=1", "url2": "http://kigankai.or.jp/" }, "geometry": { "type": "Point", "coordinates": [ 131.600723, 32.988199 ] } },
{ "type": "Feature", "properties": { "内容": "豊後大野市民病院【1:病院】【診療科目:内科_血液内科_代謝・内分泌内科_呼吸器内科_循環器内科_消化器内科_腎臓内科_神経内科_腫瘍内科_外科_脳神経外科_消化器外科_整形外科_小児科_婦人科_眼科_耳鼻いんこう科_皮膚科_泌尿器科_リハビリテーション科_放射線科_麻酔科】【一般病床数:156療養病床数:39精神病床数:0感染症病床数:4合計病床数:199】大分県豊後大野市緒方町馬場２７６番地", "url": "https://www.iryou.teikyouseido.mhlw.go.jp/znk-web/juminkanja/S2430/initialize?prefCd=44&kikanCd=1014900000&kikanKbn=1", "url2": "http://www.bungo-ohno-hp.jp/" }, "geometry": { "type": "Point", "coordinates": [ 131.476212, 32.969883 ] } },
{ "type": "Feature", "properties": { "内容": "福島病院【1:病院】【診療科目:内科_糖尿病内科_呼吸器内科_循環器内科_消化器内科_腎臓内科_人工透析内科_腫瘍内科_外科】【一般病床数:60療養病床数:0精神病床数:0感染症病床数:0合計病床数:60】大分県豊後大野市三重町市場２３１番地", "url": "https://www.iryou.teikyouseido.mhlw.go.jp/znk-web/juminkanja/S2430/initialize?prefCd=44&kikanCd=1015000000&kikanKbn=1", "url2": "https://www.shinseikai-fukushima.com/" }, "geometry": { "type": "Point", "coordinates": [ 131.586661, 32.981504 ] } },
{ "type": "Feature", "properties": { "内容": "大分大学医学部附属病院【1:病院】【診療科目:内科_血液内科_糖尿病・内分泌内科_脳神経内科_呼吸器内科_循環器内科_消化器内科_腎臓内科_神経内科_腫瘍内科_膠原病内科、総合内科・総合診療科_脳神経外科_呼吸器外科_心臓血管外科_消化器外科_乳腺外科_整形外科_形成外科_小児科_児童精神科_小児外科_神経小児科_産婦人科_眼科_頭頸部・耳鼻いんこう科_皮膚科_腎臓・泌尿器科_精神科_歯科口腔外科_アレルギー科_リウマチ科_リハビリテーション科_放射線科_病理診断科_救急科_麻酔科】【一般病床数:588療養病床数:0精神病床数:30感染症病床数:0合計病床数:618】大分県由布市挾間町医大ケ丘１丁目１番地", "url": "https://www.iryou.teikyouseido.mhlw.go.jp/znk-web/juminkanja/S2430/initialize?prefCd=44&kikanCd=1015400000&kikanKbn=1", "url2": "http://www.med.oita-u.ac.jp/hospital/index.html" }, "geometry": { "type": "Point", "coordinates": [ 131.535144, 33.210309 ] } },
{ "type": "Feature", "properties": { "内容": "日野病院【1:病院】【診療科目:内科_呼吸器内科_循環器内科_消化器内科_老年内科_外科_肛門外科_整形外科_小児科_産婦人科_耳鼻いんこう科_アレルギー科_リハビリテーション科】【一般病床数:60療養病床数:0精神病床数:0感染症病床数:0合計病床数:60】大分県由布市湯布院町川南２８０番地", "url": "https://www.iryou.teikyouseido.mhlw.go.jp/znk-web/juminkanja/S2430/initialize?prefCd=44&kikanCd=1015500000&kikanKbn=1", "url2": null }, "geometry": { "type": "Point", "coordinates": [ 131.358763, 33.257079 ] } },
{ "type": "Feature", "properties": { "内容": "湯布院病院【1:病院】【診療科目:内科_糖尿病内科_循環器内科_消化器内科_神経内科_脳神経外科_整形外科_眼科_皮膚科_泌尿器科_心療内科_リハビリテーション科_放射線科】【一般病床数:147療養病床数:52精神病床数:0感染症病床数:0合計病床数:199】大分県由布市湯布院町川南２５２", "url": "https://www.iryou.teikyouseido.mhlw.go.jp/znk-web/juminkanja/S2430/initialize?prefCd=44&kikanCd=1015600000&kikanKbn=1", "url2": "https://yufuin.jcho.go.jp" }, "geometry": { "type": "Point", "coordinates": [ 131.362903, 33.256848 ] } },
{ "type": "Feature", "properties": { "内容": "あおぞら病院【1:病院】【診療科目:内科_血液内科_脳神経内科_循環器内科_腎臓内科_人工透析内科_整形外科_耳鼻いんこう科_リハビリテーション科_放射線科_麻酔科】【一般病床数:54療養病床数:0精神病床数:0感染症病床数:0合計病床数:54】大分県国東市国東町小原２６５０番地", "url": "https://www.iryou.teikyouseido.mhlw.go.jp/znk-web/juminkanja/S2430/initialize?prefCd=44&kikanCd=1015700000&kikanKbn=1", "url2": "http://www.aozora-hsp.jp/" }, "geometry": { "type": "Point", "coordinates": [ 131.73853, 33.544879 ] } },
{ "type": "Feature", "properties": { "内容": "医療法人二豊会　国見病院【1:病院】【診療科目:内科_呼吸器内科_循環器内科_消化器内科_外科_呼吸器外科_皮膚科_リハビリテーション科】【一般病床数:0療養病床数:30精神病床数:0感染症病床数:0合計病床数:30】大分県国東市国見町伊美１９６８番地", "url": "https://www.iryou.teikyouseido.mhlw.go.jp/znk-web/juminkanja/S2430/initialize?prefCd=44&kikanCd=1015800000&kikanKbn=1", "url2": "https://nihoukai-kunimi.com/" }, "geometry": { "type": "Point", "coordinates": [ 131.605225, 33.621481 ] } },
{ "type": "Feature", "properties": { "内容": "国東市民病院【1:病院】【診療科目:内科_呼吸器内科_循環器内科_消化器内科_神経内科_外科_脳神経外科_消化器外科_肛門外科_整形外科_小児科_産婦人科_耳鼻いんこう科_皮膚科_泌尿器科_精神科_歯科口腔外科_リハビリテーション科_放射線科_麻酔科】【一般病床数:145療養病床数:50精神病床数:0感染症病床数:4合計病床数:199】大分県国東市安岐町下原１４５６番地", "url": "https://www.iryou.teikyouseido.mhlw.go.jp/znk-web/juminkanja/S2430/initialize?prefCd=44&kikanCd=1015900000&kikanKbn=1", "url2": "http://www.kunisaki-hp.jp/" }, "geometry": { "type": "Point", "coordinates": [ 131.719894, 33.467285 ] } },
{ "type": "Feature", "properties": { "内容": "サンライズ酒井病院【1:病院】【診療科目:内科_循環器内科_消化器内科_外科_脳神経外科_整形外科_婦人科_リウマチ科_リハビリテーション科】【一般病床数:99療養病床数:43精神病床数:0感染症病床数:0合計病床数:142】大分県速見郡日出町３１５６番地１", "url": "https://www.iryou.teikyouseido.mhlw.go.jp/znk-web/juminkanja/S2430/initialize?prefCd=44&kikanCd=1016000000&kikanKbn=1", "url2": "http://www.heiseikai.com/" }, "geometry": { "type": "Point", "coordinates": [ 131.529007, 33.370356 ] } },
{ "type": "Feature", "properties": { "内容": "鈴木病院【1:病院】【診療科目:内科_呼吸器内科_循環器内科_消化器内科_外科_肛門外科_整形外科_泌尿器科_リハビリテーション科_放射線科】【一般病床数:40療養病床数:0精神病床数:0感染症病床数:0合計病床数:40】大分県速見郡日出町日出町３９０４－６", "url": "https://www.iryou.teikyouseido.mhlw.go.jp/znk-web/juminkanja/S2430/initialize?prefCd=44&kikanCd=1016100000&kikanKbn=1", "url2": "https://suzuki-hp.or.jp" }, "geometry": { "type": "Point", "coordinates": [ 131.528513, 33.37385 ] } },
{ "type": "Feature", "properties": { "内容": "日出児玉病院【1:病院】【診療科目:内科_呼吸器内科_循環器内科_消化器内科_外科_消化器外科_整形外科_アレルギー科_リハビリテーション科】【一般病床数:56療養病床数:0精神病床数:0感染症病床数:0合計病床数:56】大分県速見郡日出町川崎８３７－１", "url": "https://www.iryou.teikyouseido.mhlw.go.jp/znk-web/juminkanja/S2430/initialize?prefCd=44&kikanCd=1016200000&kikanKbn=1", "url2": "http://www.hiji-kodama.jp/" }, "geometry": { "type": "Point", "coordinates": [ 131.54473, 33.367241 ] } },
{ "type": "Feature", "properties": { "内容": "医療法人　啓燈会　玖珠記念病院【1:病院】【診療科目:内科_消化器内科_外科_消化器外科_リウマチ科_リハビリテーション科】【一般病床数:48療養病床数:0精神病床数:0感染症病床数:0合計病床数:48】大分県玖珠郡玖珠町塚脇６３３番地の２", "url": "https://www.iryou.teikyouseido.mhlw.go.jp/znk-web/juminkanja/S2430/initialize?prefCd=44&kikanCd=1016300000&kikanKbn=1", "url2": null }, "geometry": { "type": "Point", "coordinates": [ 131.157894, 33.2746 ] } },
{ "type": "Feature", "properties": { "内容": "小中病院【1:病院】【診療科目:内科_胃腸内科_外科_整形外科_小児科_リハビリテーション科】【一般病床数:39療養病床数:0精神病床数:0感染症病床数:0合計病床数:39】大分県玖珠郡玖珠町塚脇１２３", "url": "https://www.iryou.teikyouseido.mhlw.go.jp/znk-web/juminkanja/S2430/initialize?prefCd=44&kikanCd=1016400000&kikanKbn=1", "url2": "http://website2.infomity.net/8310120/" }, "geometry": { "type": "Point", "coordinates": [ 131.150333, 33.278705 ] } },
{ "type": "Feature", "properties": { "内容": "協心橋病院【1:病院】【診療科目:内科_整形外科_リハビリテーション科】【一般病床数:40療養病床数:18精神病床数:0感染症病床数:0合計病床数:58】大分県玖珠郡玖珠町大字帆足３５７番１", "url": "https://www.iryou.teikyouseido.mhlw.go.jp/znk-web/juminkanja/S2430/initialize?prefCd=44&kikanCd=1016500000&kikanKbn=1", "url2": "https://www.kyoushinbashi-hospital.com" }, "geometry": { "type": "Point", "coordinates": [ 131.153716, 33.280806 ] } },
{ "type": "Feature", "properties": { "内容": "医療法人　中津第一病院【1:病院】【診療科目:内科_糖尿病内科_消化器内科_腎臓内科_人工透析内科_消化器外科_形成外科_泌尿器科_リハビリテーション科_麻酔科】【一般病床数:126療養病床数:54精神病床数:0感染症病床数:0合計病床数:180】大分県中津市宮夫", "url": "https://www.iryou.teikyouseido.mhlw.go.jp/znk-web/juminkanja/S2430/initialize?prefCd=44&kikanCd=2016100000&kikanKbn=1", "url2": "http://www.nakatsu-daiichi.jp/" }, "geometry": { "type": "Point", "coordinates": [ 131.208115, 33.588445 ] } },
{ "type": "Feature", "properties": { "内容": "社会医療法人関愛会　坂ノ市病院【1:病院】【診療科目:内科_消化器内科_小児科_リハビリテーション科】【一般病床数:36療養病床数:0精神病床数:0感染症病床数:0合計病床数:36】大分県大分市坂ノ市中央１丁目２６９番", "url": "https://www.iryou.teikyouseido.mhlw.go.jp/znk-web/juminkanja/S2430/initialize?prefCd=44&kikanCd=2028200000&kikanKbn=1", "url2": "http://sekiaikai.jp/facility/sakanoichi.php" }, "geometry": { "type": "Point", "coordinates": [ 131.752982, 33.234566 ] } },
{ "type": "Feature", "properties": { "内容": "臼杵病院【1:病院】【診療科目:内科_循環器内科_消化器内科_腎臓内科_人工透析内科_内視鏡内科_外科_脳神経外科_心臓血管外科_消化器外科_大腸外科_肛門外科_大腸・肛門外科_整形外科_精神科_歯科_リハビリテーション科】【一般病床数:33療養病床数:30精神病床数:0感染症病床数:0合計病床数:63】大分県臼杵市江無田１１５４番地１", "url": "https://www.iryou.teikyouseido.mhlw.go.jp/znk-web/juminkanja/S2430/initialize?prefCd=44&kikanCd=2029600000&kikanKbn=1", "url2": "http://usuki-hospital.or.jp/" }, "geometry": { "type": "Point", "coordinates": [ 131.780135, 33.125166 ] } },
{ "type": "Feature", "properties": { "内容": "社会医療法人関愛会　大東よつば病院【1:病院】【診療科目:内科_呼吸器内科_循環器内科_リハビリテーション科】【一般病床数:45療養病床数:0精神病床数:0感染症病床数:0合計病床数:45】大分県大分市松岡１９４６番地", "url": "https://www.iryou.teikyouseido.mhlw.go.jp/znk-web/juminkanja/S2430/initialize?prefCd=44&kikanCd=2045200000&kikanKbn=1", "url2": null }, "geometry": { "type": "Point", "coordinates": [ 131.671631, 33.175464 ] } }
]
}
