{
"type": "FeatureCollection",
"name": "geo_44_4",
"crs": { "type": "name", "properties": { "name": "urn:ogc:def:crs:OGC:1.3:CRS84" } },
"features": [
{ "type": "Feature", "properties": { "内容": "生野　助産所【4:助産院】大分県大分市豊饒三丁目１１番５３号", "url": "https://www.iryou.teikyouseido.mhlw.go.jp/znk-web/juminkanja/S2430/initialize?prefCd=44&kikanCd=1172100000&kikanKbn=4", "url2": null }, "geometry": { "type": "Point", "coordinates": [ 131.595783, 33.207885 ] } },
{ "type": "Feature", "properties": { "内容": "（出張専門）サエラ助産院【4:助産院】大分県大分市けやき台", "url": "https://www.iryou.teikyouseido.mhlw.go.jp/znk-web/juminkanja/S2430/initialize?prefCd=44&kikanCd=1172500000&kikanKbn=4", "url2": "http://www.midwifemap.com/saera/mysite/" }, "geometry": { "type": "Point", "coordinates": [ 131.677081, 33.153583 ] } },
{ "type": "Feature", "properties": { "内容": "さつき助産院【4:助産院】大分県大分市西鶴崎二丁目１番２８号　コーポサンタ３０３", "url": "https://www.iryou.teikyouseido.mhlw.go.jp/znk-web/juminkanja/S2430/initialize?prefCd=44&kikanCd=1172600000&kikanKbn=4", "url2": null }, "geometry": { "type": "Point", "coordinates": [ 131.680841, 33.242905 ] } },
{ "type": "Feature", "properties": { "内容": "佐用助産所【4:助産院】大分県大分市上戸次６８６番地", "url": "https://www.iryou.teikyouseido.mhlw.go.jp/znk-web/juminkanja/S2430/initialize?prefCd=44&kikanCd=1172700000&kikanKbn=4", "url2": null }, "geometry": { "type": "Point", "coordinates": [ 131.665649, 33.096144 ] } },
{ "type": "Feature", "properties": { "内容": "敷嶋助産所【4:助産院】大分県大分市羽田", "url": "https://www.iryou.teikyouseido.mhlw.go.jp/znk-web/juminkanja/S2430/initialize?prefCd=44&kikanCd=1172900000&kikanKbn=4", "url2": null }, "geometry": { "type": "Point", "coordinates": [ 131.63161, 33.218034 ] } },
{ "type": "Feature", "properties": { "内容": "室助産所【4:助産院】大分県大分市季の坂", "url": "https://www.iryou.teikyouseido.mhlw.go.jp/znk-web/juminkanja/S2430/initialize?prefCd=44&kikanCd=1173300000&kikanKbn=4", "url2": null }, "geometry": { "type": "Point", "coordinates": [ 131.588064, 33.227151 ] } },
{ "type": "Feature", "properties": { "内容": "渡部助産所【4:助産院】大分県大分市緑が丘４丁目９－９", "url": "https://www.iryou.teikyouseido.mhlw.go.jp/znk-web/juminkanja/S2430/initialize?prefCd=44&kikanCd=1173500000&kikanKbn=4", "url2": "Kwatanabe0807@gmail.com" }, "geometry": { "type": "Point", "coordinates": [ 131.526822, 33.184297 ] } },
{ "type": "Feature", "properties": { "内容": "黒本助産所【4:助産院】大分県別府市鶴見", "url": "https://www.iryou.teikyouseido.mhlw.go.jp/znk-web/juminkanja/S2430/initialize?prefCd=44&kikanCd=1173600000&kikanKbn=4", "url2": null }, "geometry": { "type": "Point", "coordinates": [ 131.472002, 33.305012 ] } },
{ "type": "Feature", "properties": { "内容": "安達助産院【4:助産院】大分県日田市新治町５４９－５", "url": "https://www.iryou.teikyouseido.mhlw.go.jp/znk-web/juminkanja/S2430/initialize?prefCd=44&kikanCd=1173900000&kikanKbn=4", "url2": null }, "geometry": { "type": "Point", "coordinates": [ 130.921651, 33.323513 ] } },
{ "type": "Feature", "properties": { "内容": "かっちゃん助産所【4:助産院】大分県佐伯市大字護江６２９－２", "url": "https://www.iryou.teikyouseido.mhlw.go.jp/znk-web/juminkanja/S2430/initialize?prefCd=44&kikanCd=1174300000&kikanKbn=4", "url2": null }, "geometry": { "type": "Point", "coordinates": [ 131.901917, 33.011703 ] } },
{ "type": "Feature", "properties": { "内容": "助産所　母の家【4:助産院】大分県宇佐市上拝田４７５", "url": "https://www.iryou.teikyouseido.mhlw.go.jp/znk-web/juminkanja/S2430/initialize?prefCd=44&kikanCd=1175000000&kikanKbn=4", "url2": "https://www.hahano-ie.com/" }, "geometry": { "type": "Point", "coordinates": [ 131.323751, 33.499244 ] } },
{ "type": "Feature", "properties": { "内容": "まつい助産所【4:助産院】大分県由布市挾間町医大ヶ丘３－２２－８", "url": "https://www.iryou.teikyouseido.mhlw.go.jp/znk-web/juminkanja/S2430/initialize?prefCd=44&kikanCd=1175500000&kikanKbn=4", "url2": null }, "geometry": { "type": "Point", "coordinates": [ 131.532534, 33.208163 ] } },
{ "type": "Feature", "properties": { "内容": "おひさま助産所【4:助産院】大分県速見郡日出町", "url": "https://www.iryou.teikyouseido.mhlw.go.jp/znk-web/juminkanja/S2430/initialize?prefCd=44&kikanCd=1175700000&kikanKbn=4", "url2": null }, "geometry": { "type": "Point", "coordinates": [ 131.532, 33.368958 ] } },
{ "type": "Feature", "properties": { "内容": "ひまわり助産所【4:助産院】大分県速見郡日出町", "url": "https://www.iryou.teikyouseido.mhlw.go.jp/znk-web/juminkanja/S2430/initialize?prefCd=44&kikanCd=1175800000&kikanKbn=4", "url2": null }, "geometry": { "type": "Point", "coordinates": [ 131.532, 33.368958 ] } },
{ "type": "Feature", "properties": { "内容": "詫摩助産院【4:助産院】大分県大分市志生木", "url": "https://www.iryou.teikyouseido.mhlw.go.jp/znk-web/juminkanja/S2430/initialize?prefCd=44&kikanCd=2011700000&kikanKbn=4", "url2": null }, "geometry": { "type": "Point", "coordinates": [ 131.842685, 33.243678 ] } },
{ "type": "Feature", "properties": { "内容": "おおいた母乳育児相談室【4:助産院】大分県大分市羽屋３丁目２番１８号", "url": "https://www.iryou.teikyouseido.mhlw.go.jp/znk-web/juminkanja/S2430/initialize?prefCd=44&kikanCd=2017000000&kikanKbn=4", "url2": "https://www.oita-midowife.com" }, "geometry": { "type": "Point", "coordinates": [ 131.603301, 33.23813 ] } },
{ "type": "Feature", "properties": { "内容": "すくすく増田助産所【4:助産院】大分県中津市今津３５６－３", "url": "https://www.iryou.teikyouseido.mhlw.go.jp/znk-web/juminkanja/S2430/initialize?prefCd=44&kikanCd=2018000000&kikanKbn=4", "url2": "https://sukumasu.jp/" }, "geometry": { "type": "Point", "coordinates": [ 131.281128, 33.541853 ] } },
{ "type": "Feature", "properties": { "内容": "あそしま・愛　ママサポートルーム【4:助産院】大分県宇佐市院内町田所７００－１", "url": "https://www.iryou.teikyouseido.mhlw.go.jp/znk-web/juminkanja/S2430/initialize?prefCd=44&kikanCd=2018400000&kikanKbn=4", "url2": "http://asoshimaai.sakura.ne.jp/index.html" }, "geometry": { "type": "Point", "coordinates": [ 131.248518, 33.369939 ] } },
{ "type": "Feature", "properties": { "内容": "片岡助産所【4:助産院】大分県大分市木上台", "url": "https://www.iryou.teikyouseido.mhlw.go.jp/znk-web/juminkanja/S2430/initialize?prefCd=44&kikanCd=2018800000&kikanKbn=4", "url2": null }, "geometry": { "type": "Point", "coordinates": [ 131.565682, 33.189797 ] } },
{ "type": "Feature", "properties": { "内容": "堂本助産所【4:助産院】大分県中津市宮夫", "url": "https://www.iryou.teikyouseido.mhlw.go.jp/znk-web/juminkanja/S2430/initialize?prefCd=44&kikanCd=2022000000&kikanKbn=4", "url2": null }, "geometry": { "type": "Point", "coordinates": [ 131.21107, 33.592254 ] } },
{ "type": "Feature", "properties": { "内容": "いしだ助産院【4:助産院】大分県別府市新別府", "url": "https://www.iryou.teikyouseido.mhlw.go.jp/znk-web/juminkanja/S2430/initialize?prefCd=44&kikanCd=2025400000&kikanKbn=4", "url2": null }, "geometry": { "type": "Point", "coordinates": [ 131.483855, 33.307943 ] } },
{ "type": "Feature", "properties": { "内容": "たらちね助産院（椎原）【4:助産院】大分県大分市三芳１０６３番地の９", "url": "https://www.iryou.teikyouseido.mhlw.go.jp/znk-web/juminkanja/S2430/initialize?prefCd=44&kikanCd=2025700000&kikanKbn=4", "url2": null }, "geometry": { "type": "Point", "coordinates": [ 131.583075, 33.224636 ] } },
{ "type": "Feature", "properties": { "内容": "齋藤助産院【4:助産院】大分県大分市佐野４０５８", "url": "https://www.iryou.teikyouseido.mhlw.go.jp/znk-web/juminkanja/S2430/initialize?prefCd=44&kikanCd=2027200000&kikanKbn=4", "url2": "http://esaitou.jimdo.com/?logout=1" }, "geometry": { "type": "Point", "coordinates": [ 131.723329, 33.22005 ] } },
{ "type": "Feature", "properties": { "内容": "１２３助産院【4:助産院】大分県別府市光町１－２４", "url": "https://www.iryou.teikyouseido.mhlw.go.jp/znk-web/juminkanja/S2430/initialize?prefCd=44&kikanCd=2027800000&kikanKbn=4", "url2": "http://123-jyosanin.sakura.ne.jp" }, "geometry": { "type": "Point", "coordinates": [ 131.499446, 33.272613 ] } },
{ "type": "Feature", "properties": { "内容": "かおる助産院【4:助産院】大分県大分市木上", "url": "https://www.iryou.teikyouseido.mhlw.go.jp/znk-web/juminkanja/S2430/initialize?prefCd=44&kikanCd=2030700000&kikanKbn=4", "url2": null }, "geometry": { "type": "Point", "coordinates": [ 131.563341, 33.182681 ] } },
{ "type": "Feature", "properties": { "内容": "やの助産院【4:助産院】大分県別府市幸町４－１２", "url": "https://www.iryou.teikyouseido.mhlw.go.jp/znk-web/juminkanja/S2430/initialize?prefCd=44&kikanCd=2031600000&kikanKbn=4", "url2": "https://resthouse-yano.net/" }, "geometry": { "type": "Point", "coordinates": [ 131.497899, 33.285351 ] } },
{ "type": "Feature", "properties": { "内容": "どーなつ助産院【4:助産院】大分県大分市宮崎", "url": "https://www.iryou.teikyouseido.mhlw.go.jp/znk-web/juminkanja/S2430/initialize?prefCd=44&kikanCd=2032300000&kikanKbn=4", "url2": null }, "geometry": { "type": "Point", "coordinates": [ 131.607664, 33.195081 ] } },
{ "type": "Feature", "properties": { "内容": "松木助産院【4:助産院】大分県津久見市セメント町６－２４", "url": "https://www.iryou.teikyouseido.mhlw.go.jp/znk-web/juminkanja/S2430/initialize?prefCd=44&kikanCd=2036000000&kikanKbn=4", "url2": null }, "geometry": { "type": "Point", "coordinates": [ 131.855664, 33.077722 ] } },
{ "type": "Feature", "properties": { "内容": "ｍｏｍ＆ｂａｂｙｓａｌｏｎ　ｅｎ【4:助産院】大分県大分市上田町", "url": "https://www.iryou.teikyouseido.mhlw.go.jp/znk-web/juminkanja/S2430/initialize?prefCd=44&kikanCd=2036700000&kikanKbn=4", "url2": "https://momandbabysalon-en.amebaownd.com" }, "geometry": { "type": "Point", "coordinates": [ 131.602521, 33.216302 ] } },
{ "type": "Feature", "properties": { "内容": "コスモス助産所【4:助産院】大分県大分市大道町２丁目８ー８ー７０７", "url": "https://www.iryou.teikyouseido.mhlw.go.jp/znk-web/juminkanja/S2430/initialize?prefCd=44&kikanCd=2037600000&kikanKbn=4", "url2": null }, "geometry": { "type": "Point", "coordinates": [ 131.600847, 33.233496 ] } },
{ "type": "Feature", "properties": { "内容": "愛子助産院【4:助産院】大分県大分市大石町", "url": "https://www.iryou.teikyouseido.mhlw.go.jp/znk-web/juminkanja/S2430/initialize?prefCd=44&kikanCd=2040700000&kikanKbn=4", "url2": null }, "geometry": { "type": "Point", "coordinates": [ 131.60724, 33.23902 ] } },
{ "type": "Feature", "properties": { "内容": "たけいし助産院【4:助産院】大分県大分市汐見２丁目２５番１７号プリンセスフィールズ２０１", "url": "https://www.iryou.teikyouseido.mhlw.go.jp/znk-web/juminkanja/S2430/initialize?prefCd=44&kikanCd=2042100000&kikanKbn=4", "url2": null }, "geometry": { "type": "Point", "coordinates": [ 131.736459, 33.243111 ] } },
{ "type": "Feature", "properties": { "内容": "となりのおばちゃん　田原助産所【4:助産院】大分県中津市下宮永", "url": "https://www.iryou.teikyouseido.mhlw.go.jp/znk-web/juminkanja/S2430/initialize?prefCd=44&kikanCd=2042700000&kikanKbn=4", "url2": null }, "geometry": { "type": "Point", "coordinates": [ 131.180844, 33.592307 ] } },
{ "type": "Feature", "properties": { "内容": "ななせ助産院【4:助産院】大分県大分市賀来西", "url": "https://www.iryou.teikyouseido.mhlw.go.jp/znk-web/juminkanja/S2430/initialize?prefCd=44&kikanCd=2044800000&kikanKbn=4", "url2": null }, "geometry": { "type": "Point", "coordinates": [ 131.554258, 33.21334 ] } },
{ "type": "Feature", "properties": { "内容": "産前産後ケア　ＮｅＲｉＮｅ【4:助産院】大分県大分市明野北３丁目１１－１２", "url": "https://www.iryou.teikyouseido.mhlw.go.jp/znk-web/juminkanja/S2430/initialize?prefCd=44&kikanCd=2054700000&kikanKbn=4", "url2": "https://sanzensango.hp.peraichi.com/titi" }, "geometry": { "type": "Point", "coordinates": [ 131.657433, 33.233069 ] } },
{ "type": "Feature", "properties": { "内容": "池永助産所【4:助産院】大分県大分市三佐", "url": "https://www.iryou.teikyouseido.mhlw.go.jp/znk-web/juminkanja/S2430/initialize?prefCd=44&kikanCd=2058100000&kikanKbn=4", "url2": null }, "geometry": { "type": "Point", "coordinates": [ 131.685325, 33.259191 ] } }
]
}
